{
 "type": "FeatureCollection",
 "features": [
  {
   "type": "Feature",
   "geometry": {
    "type": "Point",
    "coordinates": [
     13.5959038,
     52.4276127
    ]
   },
   "properties": {
    "Schule": "Montessori Campus Berlin Köpenick",
    "Schulnummer": "09P06",
    "Schulform": "Ersatzschule (Grundschule + Sek I)",
    "Träger": "Montessori Stiftung Berlin (staatlich anerkannt)",
    "Ortsteil": "Köpenick",
    "Bezirk": "Treptow-Köpenick",
    "Adresse": "Köpenzeile 125, 12557 Berlin",
    "Weitere Standorte": "",
    "Abschlüsse vor Ort": "bis MSA",
    "Eigene Oberstufe": "nein; nach MSA Übergang in die Montessori Oberstufe (Blücherstr. 22, Kreuzberg) „möglich“, nicht garantiert – im Schulverzeichnis ist „Gymnasiale Oberstufe“ angehakt (vermutlich die Kreuzberger Oberstufe); bei der Schule klären",
    "Abitur vor Ort": "nein",
    "Ganztag": "",
    "Profil / Schwerpunkte": "Montessori-Pädagogik",
    "Tag der offenen Tür": "Oberschule: angekündigt, Datum offen; Frühlingsfest 11.03.2027",
    "Plätze 2026/27": "",
    "Erstwünsche 2026/27": "",
    "Nachfrage Hinweis": "",
    "Schülerzahl": "293",
    "Schüler Jg. 7": "",
    "Schülerzahl Stand": "2025/26 – Gesamtzahl inkl. Grundstufe (JüL 1–3, 4–6); keine Jg. 07 ausgewiesen (Sek I offenbar jahrgangsübergreifend unter Jg. 09 gezählt); Schulverzeichnis › Schülerschaft › Jahrgangsstufen, Daten-Stand 06.10.2025",
    "Schülerzahl Quelle": "https://www.bildung.berlin.de/Schulverzeichnis/Schulportrait.aspx?IDSchulzweig=30484",
    "Kosten": "Schulgeld (Schulgeldrechner auf Website)",
    "Notizen": "Klasse 7 für 2026/27 voll; Übergang aus der eigenen Grundstufe nicht garantiert (Auswahlgespräch, keine Warteliste)",
    "Quelle": "https://montessori-cbk.de/anmeldung"
   }
  },
  {
   "type": "Feature",
   "geometry": {
    "type": "Point",
    "coordinates": [
     13.5228057,
     52.4506997
    ]
   },
   "properties": {
    "Schule": "Archenhold-Gymnasium",
    "Schulnummer": "09Y03",
    "Schulform": "Gymnasium",
    "Träger": "staatlich",
    "Ortsteil": "",
    "Bezirk": "Treptow-Köpenick",
    "Adresse": "Rudower Straße 7, 12439 Berlin",
    "Weitere Standorte": "",
    "Abschlüsse vor Ort": "Abitur",
    "Eigene Oberstufe": "ja",
    "Abitur vor Ort": "ja",
    "Ganztag": "ja (AGs, Nachhilfe)",
    "Profil / Schwerpunkte": "MINT-EC-Schule; Medienklasse; Robotik-AG; Erasmus+",
    "Tag der offenen Tür": "Schnuppertag 10.12.2026 (Schule: 11:30–14 Uhr, Bezirk: 12–14 Uhr); TdoT 16.01.2027, 9–12 Uhr",
    "Plätze 2026/27": "128",
    "Erstwünsche 2026/27": "157",
    "Nachfrage Hinweis": "",
    "Schülerzahl": "720",
    "Schüler Jg. 7": "136",
    "Schülerzahl Stand": "2025/26 – Schulverzeichnis › Schülerschaft › Jahrgangsstufen, Daten-Stand 06.10.2025",
    "Schülerzahl Quelle": "https://www.bildung.berlin.de/Schulverzeichnis/Schulportrait.aspx?IDSchulzweig=30122",
    "Kosten": "kostenfrei",
    "Notizen": "Notensumme ≤ 14 nötig, sonst Probeunterricht",
    "Quelle": "https://archenhold.de/"
   }
  },
  {
   "type": "Feature",
   "geometry": {
    "type": "Point",
    "coordinates": [
     13.5245405,
     52.3999335
    ]
   },
   "properties": {
    "Schule": "Anne-Frank-Gymnasium",
    "Schulnummer": "09Y04",
    "Schulform": "Gymnasium",
    "Träger": "staatlich",
    "Ortsteil": "",
    "Bezirk": "Treptow-Köpenick",
    "Adresse": "Uranusstraße 15-17, 12524 Berlin",
    "Weitere Standorte": "",
    "Abschlüsse vor Ort": "Abitur",
    "Eigene Oberstufe": "ja",
    "Abitur vor Ort": "ja",
    "Ganztag": "",
    "Profil / Schwerpunkte": "",
    "Tag der offenen Tür": "Info + TdoT künftige 7. Klassen 11.11.2026, 16:30–19 Uhr; Schnuppertag 04.12.2026, 8–14 Uhr; Elterninfo 14.01.2027, 16:30 Uhr",
    "Plätze 2026/27": "160",
    "Erstwünsche 2026/27": "112",
    "Nachfrage Hinweis": "",
    "Schülerzahl": "888",
    "Schüler Jg. 7": "177",
    "Schülerzahl Stand": "2025/26 – Schulverzeichnis › Schülerschaft › Jahrgangsstufen, Daten-Stand 06.10.2025",
    "Schülerzahl Quelle": "https://www.bildung.berlin.de/Schulverzeichnis/Schulportrait.aspx?IDSchulzweig=30123",
    "Kosten": "kostenfrei",
    "Notizen": "Notensumme ≤ 14 nötig, sonst Probeunterricht",
    "Quelle": "https://www.berlin.de/ba-treptow-koepenick/politik-und-verwaltung/aemter/schul-und-sportamt/schule/weiterfuehrende-schulen-in-treptow-koepenick-1626581.php"
   }
  },
  {
   "type": "Feature",
   "geometry": {
    "type": "Point",
    "coordinates": [
     13.5684411,
     52.4466709
    ]
   },
   "properties": {
    "Schule": "Alexander-von-Humboldt-Gymnasium",
    "Schulnummer": "09Y05",
    "Schulform": "Gymnasium",
    "Träger": "staatlich",
    "Ortsteil": "",
    "Bezirk": "Treptow-Köpenick",
    "Adresse": "Oberspreestraße 173, 12555 Berlin",
    "Weitere Standorte": "",
    "Abschlüsse vor Ort": "Abitur",
    "Eigene Oberstufe": "ja",
    "Abitur vor Ort": "ja",
    "Ganztag": "",
    "Profil / Schwerpunkte": "",
    "Tag der offenen Tür": "TdoT 07.11.2026, 10–13 Uhr; Elterninfo 30.11.2026, 19 Uhr; Schnupperunterricht für Mathe-Olympiade-Teilnehmende 11.11.2026",
    "Plätze 2026/27": "160",
    "Erstwünsche 2026/27": "147",
    "Nachfrage Hinweis": "",
    "Schülerzahl": "804",
    "Schüler Jg. 7": "154",
    "Schülerzahl Stand": "2025/26 – Schulverzeichnis › Schülerschaft › Jahrgangsstufen, Daten-Stand 06.10.2025",
    "Schülerzahl Quelle": "https://www.bildung.berlin.de/Schulverzeichnis/Schulportrait.aspx?IDSchulzweig=30573",
    "Kosten": "kostenfrei",
    "Notizen": "Notensumme ≤ 14 nötig, sonst Probeunterricht",
    "Quelle": "https://www.berlin.de/ba-treptow-koepenick/politik-und-verwaltung/aemter/schul-und-sportamt/schule/weiterfuehrende-schulen-in-treptow-koepenick-1626581.php"
   }
  },
  {
   "type": "Feature",
   "geometry": {
    "type": "Point",
    "coordinates": [
     13.6335468,
     52.4518193
    ]
   },
   "properties": {
    "Schule": "Gerhart-Hauptmann-Gymnasium",
    "Schulnummer": "09Y06",
    "Schulform": "Gymnasium",
    "Träger": "staatlich",
    "Ortsteil": "",
    "Bezirk": "Treptow-Köpenick",
    "Adresse": "Bruno-Wille-Straße 37-39, 12587 Berlin",
    "Weitere Standorte": "",
    "Abschlüsse vor Ort": "Abitur",
    "Eigene Oberstufe": "ja",
    "Abitur vor Ort": "ja",
    "Ganztag": "",
    "Profil / Schwerpunkte": "",
    "Tag der offenen Tür": "Info weitere Fremdsprachen 11.11.2026, 18:30 Uhr; Elterninfo 25.11.2026, 19 Uhr; TdoT 23.01.2027, 10–13 Uhr",
    "Plätze 2026/27": "160",
    "Erstwünsche 2026/27": "156",
    "Nachfrage Hinweis": "Bezirk nennt die Schule im Vorjahr „besonders nachgefragt“ (2025/26: 128 Plätze / 167 EW)",
    "Schülerzahl": "810",
    "Schüler Jg. 7": "128",
    "Schülerzahl Stand": "2025/26 – Schulverzeichnis › Schülerschaft › Jahrgangsstufen, Daten-Stand 06.10.2025",
    "Schülerzahl Quelle": "https://www.bildung.berlin.de/Schulverzeichnis/Schulportrait.aspx?IDSchulzweig=30574",
    "Kosten": "kostenfrei",
    "Notizen": "Notensumme ≤ 14 nötig, sonst Probeunterricht; laut Bezirk im Vorjahr besonders nachgefragt (Erstwünsche oft nicht alle erfüllbar)",
    "Quelle": "https://www.berlin.de/ba-treptow-koepenick/politik-und-verwaltung/aemter/schul-und-sportamt/schule/weiterfuehrende-schulen-in-treptow-koepenick-1626581.php"
   }
  },
  {
   "type": "Feature",
   "geometry": {
    "type": "Point",
    "coordinates": [
     13.5034754,
     52.4484368
    ]
   },
   "properties": {
    "Schule": "Gebrüder-Montgolfier-Gymnasium",
    "Schulnummer": "09Y10",
    "Schulform": "Gymnasium",
    "Träger": "staatlich",
    "Ortsteil": "",
    "Bezirk": "Treptow-Köpenick",
    "Adresse": "Ellernweg 20/22, 12487 Berlin",
    "Weitere Standorte": "",
    "Abschlüsse vor Ort": "Abitur",
    "Eigene Oberstufe": "ja",
    "Abitur vor Ort": "ja",
    "Ganztag": "",
    "Profil / Schwerpunkte": "",
    "Tag der offenen Tür": "Schnuppertag 17.11.2026, 10 Uhr; Elterninfo 19.11.2026, 18 Uhr (mit Anna-Seghers- und Hans-Grade-Schule); TdoT 23.01.2027, 10–13 Uhr",
    "Plätze 2026/27": "160",
    "Erstwünsche 2026/27": "154",
    "Nachfrage Hinweis": "",
    "Schülerzahl": "948",
    "Schüler Jg. 7": "157",
    "Schülerzahl Stand": "2025/26 – Schulverzeichnis › Schülerschaft › Jahrgangsstufen, Daten-Stand 06.10.2025",
    "Schülerzahl Quelle": "https://www.bildung.berlin.de/Schulverzeichnis/Schulportrait.aspx?IDSchulzweig=30119",
    "Kosten": "kostenfrei",
    "Notizen": "Notensumme ≤ 14 nötig, sonst Probeunterricht",
    "Quelle": "https://www.berlin.de/ba-treptow-koepenick/politik-und-verwaltung/aemter/schul-und-sportamt/schule/weiterfuehrende-schulen-in-treptow-koepenick-1626581.php"
   }
  },
  {
   "type": "Feature",
   "geometry": {
    "type": "Point",
    "coordinates": [
     13.5887798,
     52.4427352
    ]
   },
   "properties": {
    "Schule": "Emmy-Noether-Gymnasium",
    "Schulnummer": "09Y11",
    "Schulform": "Gymnasium",
    "Träger": "staatlich",
    "Ortsteil": "",
    "Bezirk": "Treptow-Köpenick",
    "Adresse": "Pablo-Neruda-Straße 6-7, 12559 Berlin",
    "Weitere Standorte": "",
    "Abschlüsse vor Ort": "Abitur",
    "Eigene Oberstufe": "ja",
    "Abitur vor Ort": "ja",
    "Ganztag": "",
    "Profil / Schwerpunkte": "",
    "Tag der offenen Tür": "keine Termine auf Bezirksseite",
    "Plätze 2026/27": "128",
    "Erstwünsche 2026/27": "109",
    "Nachfrage Hinweis": "",
    "Schülerzahl": "836",
    "Schüler Jg. 7": "150",
    "Schülerzahl Stand": "2025/26 – Gesamtzahl inkl. Jg. 5, 6; Schulverzeichnis › Schülerschaft › Jahrgangsstufen, Daten-Stand 06.10.2025",
    "Schülerzahl Quelle": "https://www.bildung.berlin.de/Schulverzeichnis/Schulportrait.aspx?IDSchulzweig=30784",
    "Kosten": "kostenfrei",
    "Notizen": "Notensumme ≤ 14 nötig, sonst Probeunterricht; Termine auf Schulwebsite prüfen",
    "Quelle": "https://www.berlin.de/ba-treptow-koepenick/politik-und-verwaltung/aemter/schul-und-sportamt/schule/weiterfuehrende-schulen-in-treptow-koepenick-1626581.php"
   }
  },
  {
   "type": "Feature",
   "geometry": {
    "type": "Point",
    "coordinates": [
     13.4836805,
     52.4685092
    ]
   },
   "properties": {
    "Schule": "Rachel-Carson-Gymnasium (12. Gymnasium)",
    "Schulnummer": "09Y12",
    "Schulform": "Gymnasium",
    "Träger": "staatlich",
    "Ortsteil": "",
    "Bezirk": "Treptow-Köpenick",
    "Adresse": "Kiefholzstraße 274, 12437 Berlin",
    "Weitere Standorte": "",
    "Abschlüsse vor Ort": "Abitur",
    "Eigene Oberstufe": "im Aufbau (gegründet 2023, bisher nur Jg. 7–9)",
    "Abitur vor Ort": "im Aufbau",
    "Ganztag": "",
    "Profil / Schwerpunkte": "",
    "Tag der offenen Tür": "keine Termine auf Bezirksseite",
    "Plätze 2026/27": "84",
    "Erstwünsche 2026/27": "105",
    "Nachfrage Hinweis": "",
    "Schülerzahl": "210",
    "Schüler Jg. 7": "76",
    "Schülerzahl Stand": "2025/26 – Schule im Aufbau (nur Jg. 07, 08, 09); Schulverzeichnis › Schülerschaft › Jahrgangsstufen, Daten-Stand 06.10.2025",
    "Schülerzahl Quelle": "https://www.bildung.berlin.de/Schulverzeichnis/Schulportrait.aspx?IDSchulzweig=31309",
    "Kosten": "kostenfrei",
    "Notizen": "Notensumme ≤ 14 nötig, sonst Probeunterricht; Termine auf Schulwebsite prüfen",
    "Quelle": "https://www.berlin.de/ba-treptow-koepenick/politik-und-verwaltung/aemter/schul-und-sportamt/schule/weiterfuehrende-schulen-in-treptow-koepenick-1626581.php"
   }
  },
  {
   "type": "Feature",
   "geometry": {
    "type": "Point",
    "coordinates": [
     13.5768611,
     52.4647215
    ]
   },
   "properties": {
    "Schule": "Merian-Schule",
    "Schulnummer": "09K01",
    "Schulform": "Integrierte Sekundarschule",
    "Träger": "staatlich",
    "Ortsteil": "",
    "Bezirk": "Treptow-Köpenick",
    "Adresse": "Hoernlestraße 80, 12555 Berlin",
    "Weitere Standorte": "Mittelheide 49, 12555 Berlin (ca. 800 m entfernt; welcher Standort für Kl. 7 gilt: unklar)",
    "Abschlüsse vor Ort": "",
    "Eigene Oberstufe": "ja, eigene (Abitur nach Kl. 13, lt. Senatsverzeichnis 2027/28)",
    "Abitur vor Ort": "ja",
    "Ganztag": "",
    "Profil / Schwerpunkte": "",
    "Tag der offenen Tür": "Schnuppertag 18.11.2026 (Anmeldung über Homepage); Elterninfo 12.01. und 20.01.2027, 18 Uhr; TdoT 28.01.2027, 17–20 Uhr (Mittelheide)",
    "Plätze 2026/27": "156",
    "Erstwünsche 2026/27": "223",
    "Nachfrage Hinweis": "",
    "Schülerzahl": "1041",
    "Schüler Jg. 7": "156",
    "Schülerzahl Stand": "2025/26 – Schulverzeichnis › Schülerschaft › Jahrgangsstufen, Daten-Stand 06.10.2025",
    "Schülerzahl Quelle": "https://www.bildung.berlin.de/Schulverzeichnis/Schulportrait.aspx?IDSchulzweig=30577",
    "Kosten": "kostenfrei",
    "Notizen": "laut Bezirk im Vorjahr besonders nachgefragt (Erstwünsche oft nicht alle erfüllbar)",
    "Quelle": "https://www.berlin.de/ba-treptow-koepenick/politik-und-verwaltung/aemter/schul-und-sportamt/schule/weiterfuehrende-schulen-in-treptow-koepenick-1626581.php"
   }
  },
  {
   "type": "Feature",
   "geometry": {
    "type": "Point",
    "coordinates": [
     13.5492828,
     52.4348459
    ]
   },
   "properties": {
    "Schule": "Anna-Seghers-Schule",
    "Schulnummer": "09K02",
    "Schulform": "Gemeinschaftsschule",
    "Träger": "staatlich",
    "Ortsteil": "",
    "Bezirk": "Treptow-Köpenick",
    "Adresse": "Radickestraße 43, 12489 Berlin",
    "Weitere Standorte": "",
    "Abschlüsse vor Ort": "",
    "Eigene Oberstufe": "ja, eigene (lt. Senatsverzeichnis 2027/28)",
    "Abitur vor Ort": "ja",
    "Ganztag": "",
    "Profil / Schwerpunkte": "",
    "Tag der offenen Tür": "Elterninfo 19.11.2026, 18 Uhr (gemeinsam mit Montgolfier-Gymnasium)",
    "Plätze 2026/27": "104",
    "Erstwünsche 2026/27": "14",
    "Nachfrage Hinweis": "Plätze inkl. interner Übergänger aus der eigenen Grundstufe, Erstwünsche nur extern – für Externe knapper als es aussieht",
    "Schülerzahl": "1367",
    "Schüler Jg. 7": "105",
    "Schülerzahl Stand": "2025/26 – Gesamtzahl inkl. Jg. 1, 2, 3, 4, 5, 6 (Grundstufe); Schulverzeichnis › Schülerschaft › Jahrgangsstufen, Daten-Stand 06.10.2025",
    "Schülerzahl Quelle": "https://www.bildung.berlin.de/Schulverzeichnis/Schulportrait.aspx?IDSchulzweig=30124",
    "Kosten": "kostenfrei",
    "Notizen": "eigene Termine auf Schulwebsite prüfen",
    "Quelle": "https://www.berlin.de/ba-treptow-koepenick/politik-und-verwaltung/aemter/schul-und-sportamt/schule/weiterfuehrende-schulen-in-treptow-koepenick-1626581.php"
   }
  },
  {
   "type": "Feature",
   "geometry": {
    "type": "Point",
    "coordinates": [
     13.5639834,
     52.4010297
    ]
   },
   "properties": {
    "Schule": "Mediencampus Altglienicke (ehem. Fritz-Kühn-Schule)",
    "Schulnummer": "09K03",
    "Schulform": "Integrierte Sekundarschule",
    "Träger": "staatlich",
    "Ortsteil": "",
    "Bezirk": "Treptow-Köpenick",
    "Adresse": "Dahmestraße 45, 12526 Berlin",
    "Weitere Standorte": "Kalker Straße, 12524 Berlin (Altglienicke)",
    "Abschlüsse vor Ort": "",
    "Eigene Oberstufe": "im Aufbau (Jg. 7–13 lt. Senatsverzeichnis 2027/28; weiteres Gebäude geplant)",
    "Abitur vor Ort": "im Aufbau",
    "Ganztag": "",
    "Profil / Schwerpunkte": "",
    "Tag der offenen Tür": "Schnuppertag 14.01.2027, 8:30–13 Uhr; Elterninfo 15.01.2027, 17 Uhr",
    "Plätze 2026/27": "208",
    "Erstwünsche 2026/27": "182",
    "Nachfrage Hinweis": "",
    "Schülerzahl": "503",
    "Schüler Jg. 7": "105",
    "Schülerzahl Stand": "2025/26 – Schulverzeichnis › Schülerschaft › Jahrgangsstufen, Daten-Stand 06.10.2025",
    "Schülerzahl Quelle": "https://www.bildung.berlin.de/Schulverzeichnis/Schulportrait.aspx?IDSchulzweig=30118",
    "Kosten": "kostenfrei",
    "Notizen": "Hauptstandort lt. Schulverzeichnis; weiterer Standort Kalker Straße (Altglienicke)",
    "Quelle": "https://www.berlin.de/ba-treptow-koepenick/politik-und-verwaltung/aemter/schul-und-sportamt/schule/weiterfuehrende-schulen-in-treptow-koepenick-1626581.php"
   }
  },
  {
   "type": "Feature",
   "geometry": {
    "type": "Point",
    "coordinates": [
     13.5185031,
     52.4657914
    ]
   },
   "properties": {
    "Schule": "Isaac-Newton-Schule",
    "Schulnummer": "09K04",
    "Schulform": "Integrierte Sekundarschule",
    "Träger": "staatlich",
    "Ortsteil": "",
    "Bezirk": "Treptow-Köpenick",
    "Adresse": "Zeppelinstraße 80/88, 12459 Berlin",
    "Weitere Standorte": "",
    "Abschlüsse vor Ort": "",
    "Eigene Oberstufe": "nein; Kooperation mit Merian-Schule (09K01) und 09B03",
    "Abitur vor Ort": "nein",
    "Ganztag": "",
    "Profil / Schwerpunkte": "",
    "Tag der offenen Tür": "keine Termine auf Bezirksseite",
    "Plätze 2026/27": "104",
    "Erstwünsche 2026/27": "100",
    "Nachfrage Hinweis": "",
    "Schülerzahl": "449",
    "Schüler Jg. 7": "102",
    "Schülerzahl Stand": "2025/26 – Schulverzeichnis › Schülerschaft › Jahrgangsstufen, Daten-Stand 06.10.2025",
    "Schülerzahl Quelle": "https://www.bildung.berlin.de/Schulverzeichnis/Schulportrait.aspx?IDSchulzweig=30621",
    "Kosten": "kostenfrei",
    "Notizen": "Termine auf Schulwebsite prüfen",
    "Quelle": "https://www.berlin.de/ba-treptow-koepenick/politik-und-verwaltung/aemter/schul-und-sportamt/schule/weiterfuehrende-schulen-in-treptow-koepenick-1626581.php"
   }
  },
  {
   "type": "Feature",
   "geometry": {
    "type": "Point",
    "coordinates": [
     13.6193172,
     52.4512257
    ]
   },
   "properties": {
    "Schule": "Wilhelm-Bölsche-Schule",
    "Schulnummer": "09K05",
    "Schulform": "Integrierte Sekundarschule",
    "Träger": "staatlich",
    "Ortsteil": "",
    "Bezirk": "Treptow-Köpenick",
    "Adresse": "Aßmannstraße 11, 12587 Berlin",
    "Weitere Standorte": "",
    "Abschlüsse vor Ort": "",
    "Eigene Oberstufe": "nein; Kooperation mit Merian-Schule (09K01) und 09B03",
    "Abitur vor Ort": "nein",
    "Ganztag": "",
    "Profil / Schwerpunkte": "",
    "Tag der offenen Tür": "Infoabend 14.10.2026, 18 Uhr; Schnuppertage 02./09./16.11.2026, 9:30–12:30 Uhr; TdoT 28.11.2026, 10–13 Uhr",
    "Plätze 2026/27": "156",
    "Erstwünsche 2026/27": "107",
    "Nachfrage Hinweis": "",
    "Schülerzahl": "601",
    "Schüler Jg. 7": "153",
    "Schülerzahl Stand": "2025/26 – Schulverzeichnis › Schülerschaft › Jahrgangsstufen, Daten-Stand 06.10.2025",
    "Schülerzahl Quelle": "https://www.bildung.berlin.de/Schulverzeichnis/Schulportrait.aspx?IDSchulzweig=30523",
    "Kosten": "kostenfrei",
    "Notizen": "",
    "Quelle": "https://www.berlin.de/ba-treptow-koepenick/politik-und-verwaltung/aemter/schul-und-sportamt/schule/weiterfuehrende-schulen-in-treptow-koepenick-1626581.php"
   }
  },
  {
   "type": "Feature",
   "geometry": {
    "type": "Point",
    "coordinates": [
     13.499589,
     52.4441039
    ]
   },
   "properties": {
    "Schule": "Hans-Grade-Schule",
    "Schulnummer": "09K06",
    "Schulform": "Integrierte Sekundarschule",
    "Träger": "staatlich",
    "Ortsteil": "",
    "Bezirk": "Treptow-Köpenick",
    "Adresse": "Heubergerweg 37, 12487 Berlin",
    "Weitere Standorte": "",
    "Abschlüsse vor Ort": "",
    "Eigene Oberstufe": "nein; Kooperation mit 09B03, Merian (09K01), Anna-Seghers (09K02)",
    "Abitur vor Ort": "nein",
    "Ganztag": "",
    "Profil / Schwerpunkte": "",
    "Tag der offenen Tür": "Elterninfo 19.11.2026, 18 Uhr (mit Montgolfier-Gymnasium); TdoT 11.02.2027, 16–19 Uhr",
    "Plätze 2026/27": "104",
    "Erstwünsche 2026/27": "129",
    "Nachfrage Hinweis": "",
    "Schülerzahl": "450",
    "Schüler Jg. 7": "104",
    "Schülerzahl Stand": "2025/26 – Schulverzeichnis › Schülerschaft › Jahrgangsstufen, Daten-Stand 06.10.2025",
    "Schülerzahl Quelle": "https://www.bildung.berlin.de/Schulverzeichnis/Schulportrait.aspx?IDSchulzweig=30117",
    "Kosten": "kostenfrei",
    "Notizen": "laut Bezirk im Vorjahr besonders nachgefragt (Erstwünsche oft nicht alle erfüllbar)",
    "Quelle": "https://www.berlin.de/ba-treptow-koepenick/politik-und-verwaltung/aemter/schul-und-sportamt/schule/weiterfuehrende-schulen-in-treptow-koepenick-1626581.php"
   }
  },
  {
   "type": "Feature",
   "geometry": {
    "type": "Point",
    "coordinates": [
     13.4786522,
     52.482366
    ]
   },
   "properties": {
    "Schule": "Sophie-Brahe-Gemeinschaftsschule",
    "Schulnummer": "09K07",
    "Schulform": "Gemeinschaftsschule",
    "Träger": "staatlich",
    "Ortsteil": "",
    "Bezirk": "Treptow-Köpenick",
    "Adresse": "Am Plänterwald 17/23, 12435 Berlin",
    "Weitere Standorte": "",
    "Abschlüsse vor Ort": "",
    "Eigene Oberstufe": "ja, im Verbund mit der Röntgen-Schule (08K09)",
    "Abitur vor Ort": "ja",
    "Ganztag": "",
    "Profil / Schwerpunkte": "",
    "Tag der offenen Tür": "Elterninfo 19.11.2026, 18 Uhr; Schnuppertage 26.11.2026 und 16.02.2027, 10–13 Uhr; TdoT 03.12.2026, 16–19 Uhr",
    "Plätze 2026/27": "156",
    "Erstwünsche 2026/27": "125",
    "Nachfrage Hinweis": "",
    "Schülerzahl": "1233",
    "Schüler Jg. 7": "201",
    "Schülerzahl Stand": "2025/26 – Gesamtzahl inkl. Jg. 1, 2, 3, 4, 5, 6 (Grundstufe); Schulverzeichnis › Schülerschaft › Jahrgangsstufen, Daten-Stand 06.10.2025",
    "Schülerzahl Quelle": "https://www.bildung.berlin.de/Schulverzeichnis/Schulportrait.aspx?IDSchulzweig=30116",
    "Kosten": "kostenfrei",
    "Notizen": "",
    "Quelle": "https://www.berlin.de/ba-treptow-koepenick/politik-und-verwaltung/aemter/schul-und-sportamt/schule/weiterfuehrende-schulen-in-treptow-koepenick-1626581.php"
   }
  },
  {
   "type": "Feature",
   "geometry": {
    "type": "Point",
    "coordinates": [
     13.5671926,
     52.4404573
    ]
   },
   "properties": {
    "Schule": "Schule an der Dahme",
    "Schulnummer": "09K08",
    "Schulform": "Integrierte Sekundarschule",
    "Träger": "staatlich",
    "Ortsteil": "",
    "Bezirk": "Treptow-Köpenick",
    "Adresse": "Glienicker Straße 24-30, 12557 Berlin",
    "Weitere Standorte": "",
    "Abschlüsse vor Ort": "",
    "Eigene Oberstufe": "ja, im Verbund mit der Grünauer GemS (Kurse meist in Grünau)",
    "Abitur vor Ort": "ja",
    "Ganztag": "",
    "Profil / Schwerpunkte": "",
    "Tag der offenen Tür": "keine Termine auf Bezirksseite",
    "Plätze 2026/27": "130",
    "Erstwünsche 2026/27": "220",
    "Nachfrage Hinweis": "",
    "Schülerzahl": "666",
    "Schüler Jg. 7": "130",
    "Schülerzahl Stand": "2025/26 – Schulverzeichnis › Schülerschaft › Jahrgangsstufen, Daten-Stand 06.10.2025",
    "Schülerzahl Quelle": "https://www.bildung.berlin.de/Schulverzeichnis/Schulportrait.aspx?IDSchulzweig=30676",
    "Kosten": "kostenfrei",
    "Notizen": "laut Bezirk im Vorjahr besonders nachgefragt (Erstwünsche oft nicht alle erfüllbar); Termine auf Schulwebsite prüfen",
    "Quelle": "https://www.berlin.de/ba-treptow-koepenick/politik-und-verwaltung/aemter/schul-und-sportamt/schule/weiterfuehrende-schulen-in-treptow-koepenick-1626581.php"
   }
  },
  {
   "type": "Feature",
   "geometry": {
    "type": "Point",
    "coordinates": [
     13.5767922,
     52.4198814
    ]
   },
   "properties": {
    "Schule": "Grünauer Gemeinschaftsschule",
    "Schulnummer": "09K09",
    "Schulform": "Gemeinschaftsschule",
    "Träger": "staatlich",
    "Ortsteil": "",
    "Bezirk": "Treptow-Köpenick",
    "Adresse": "Walchenseestraße 40, 12527 Berlin",
    "Weitere Standorte": "",
    "Abschlüsse vor Ort": "",
    "Eigene Oberstufe": "ja, im Verbund mit der Schule an der Dahme",
    "Abitur vor Ort": "ja",
    "Ganztag": "",
    "Profil / Schwerpunkte": "",
    "Tag der offenen Tür": "keine Termine auf Bezirksseite",
    "Plätze 2026/27": "104",
    "Erstwünsche 2026/27": "36",
    "Nachfrage Hinweis": "Plätze inkl. interner Übergänger aus der eigenen Grundstufe, Erstwünsche nur extern – für Externe knapper als es aussieht",
    "Schülerzahl": "1149",
    "Schüler Jg. 7": "103",
    "Schülerzahl Stand": "2025/26 – Gesamtzahl inkl. Jg. 1, 2, 3, 4, 5, 6 (Grundstufe); Schulverzeichnis › Schülerschaft › Jahrgangsstufen, Daten-Stand 06.10.2025",
    "Schülerzahl Quelle": "https://www.bildung.berlin.de/Schulverzeichnis/Schulportrait.aspx?IDSchulzweig=30643",
    "Kosten": "kostenfrei",
    "Notizen": "laut Bezirk im Vorjahr besonders nachgefragt (Erstwünsche oft nicht alle erfüllbar); Termine auf Schulwebsite prüfen",
    "Quelle": "https://www.berlin.de/ba-treptow-koepenick/politik-und-verwaltung/aemter/schul-und-sportamt/schule/weiterfuehrende-schulen-in-treptow-koepenick-1626581.php"
   }
  },
  {
   "type": "Feature",
   "geometry": {
    "type": "Point",
    "coordinates": [
     13.517986,
     52.4300337
    ]
   },
   "properties": {
    "Schule": "Gemeinschaftsschule Adlershof",
    "Schulnummer": "09K10",
    "Schulform": "Gemeinschaftsschule",
    "Träger": "staatlich",
    "Ortsteil": "",
    "Bezirk": "Treptow-Köpenick",
    "Adresse": "Eisenhutweg 129, 12487 Berlin",
    "Weitere Standorte": "",
    "Abschlüsse vor Ort": "",
    "Eigene Oberstufe": "im Aufbau (Infoabend Oberstufe 21.01.2027)",
    "Abitur vor Ort": "im Aufbau",
    "Ganztag": "",
    "Profil / Schwerpunkte": "",
    "Tag der offenen Tür": "Schnuppertag für 6. Klässler 26.11.2026; TdoT 23.01.2027, 10–13 Uhr",
    "Plätze 2026/27": "156",
    "Erstwünsche 2026/27": "258",
    "Nachfrage Hinweis": "",
    "Schülerzahl": "156",
    "Schüler Jg. 7": "156",
    "Schülerzahl Stand": "2025/26 – Schule im Aufbau (nur Jg. 07); Schulverzeichnis › Schülerschaft › Jahrgangsstufen, Daten-Stand 06.10.2025",
    "Schülerzahl Quelle": "https://www.bildung.berlin.de/Schulverzeichnis/Schulportrait.aspx?IDSchulzweig=31333",
    "Kosten": "kostenfrei",
    "Notizen": "amtlich: „10. Schule (Gemeinschaftsschule)“; neu (seit 2026/27); PLZ an anderer Stelle als 12489 angegeben",
    "Quelle": "https://www.berlin.de/ba-treptow-koepenick/politik-und-verwaltung/aemter/schul-und-sportamt/schule/weiterfuehrende-schulen-in-treptow-koepenick-1626581.php"
   }
  },
  {
   "type": "Feature",
   "geometry": {
    "type": "Point",
    "coordinates": [
     13.5334723,
     52.4916876
    ]
   },
   "properties": {
    "Schule": "Zukunftscampus Karlshorst",
    "Schulnummer": "11K17",
    "Schulform": "Integrierte Sekundarschule",
    "Träger": "staatlich",
    "Ortsteil": "Karlshorst (Lichtenberg)",
    "Bezirk": "Lichtenberg",
    "Adresse": "Römerweg 29, 10318 Berlin",
    "Weitere Standorte": "",
    "Abschlüsse vor Ort": "",
    "Eigene Oberstufe": "geplant (Jg. 7–13 lt. Senatsverzeichnis 2027/28; Schule neu seit 2026/27)",
    "Abitur vor Ort": "im Aufbau",
    "Ganztag": "",
    "Profil / Schwerpunkte": "",
    "Tag der offenen Tür": "Termine-Seite noch nicht geprüft",
    "Plätze 2026/27": "130",
    "Erstwünsche 2026/27": "145",
    "Nachfrage Hinweis": "",
    "Schülerzahl": "",
    "Schüler Jg. 7": "",
    "Schülerzahl Stand": " – Neugründung (17. ISS, 11K17), Start 2026/27 – im Schulverzeichnis noch keine Schülerdaten",
    "Schülerzahl Quelle": "https://www.bildung.berlin.de/Schulverzeichnis/Schulportrait.aspx?IDSchulzweig=31352",
    "Kosten": "kostenfrei",
    "Notizen": "amtlich: „17. Schule (Integrierte Sekundarschule)“; neu (seit 2026/27), Bezirk Lichtenberg; Website noch sehr dünn",
    "Quelle": "https://zukunftscampus-karlshorst.de/"
   }
  },
  {
   "type": "Feature",
   "geometry": {
    "type": "Point",
    "coordinates": [
     13.506389,
     52.4943991
    ]
   },
   "properties": {
    "Schule": "Paul-und-Charlotte-Kniese-Schule",
    "Schulnummer": "11K12",
    "Schulform": "Gemeinschaftsschule",
    "Träger": "staatlich",
    "Ortsteil": "Friedrichsfelde (Lichtenberg)",
    "Bezirk": "Lichtenberg",
    "Adresse": "Dolgenseestraße 60, 10319 Berlin",
    "Weitere Standorte": "Erich-Kurz-Straße 6-10, 10319 Berlin (Hauptsitz, Kl. 1–6) – die Karte zeigt den Standort der Kl. 7–13",
    "Abschlüsse vor Ort": "alle bis Abitur",
    "Eigene Oberstufe": "ja (lt. Website gemeinsam mit Schule am Tierpark)",
    "Abitur vor Ort": "ja",
    "Ganztag": "",
    "Profil / Schwerpunkte": "inklusive Schwerpunktschule; Lernbüros (KuBa), Logbuch, Bilanzgespräche",
    "Tag der offenen Tür": "19.02.2027, 15–18 Uhr",
    "Plätze 2026/27": "104",
    "Erstwünsche 2026/27": "57",
    "Nachfrage Hinweis": "Plätze inkl. interner Übergänger",
    "Schülerzahl": "994",
    "Schüler Jg. 7": "106",
    "Schülerzahl Stand": "2025/26 – Gesamtzahl inkl. Jg. 2, 3, 4, 5, 6 (Grundstufe); Schulverzeichnis › Schülerschaft › Jahrgangsstufen, Daten-Stand 06.10.2025",
    "Schülerzahl Quelle": "https://www.bildung.berlin.de/Schulverzeichnis/Schulportrait.aspx?IDSchulzweig=31188",
    "Kosten": "kostenfrei",
    "Notizen": "2026/27: 104 Plätze / 57 Erstwünsche (unternachgefragt); Kl. 1–6 in der Erich-Kurz-Str.",
    "Quelle": "https://www.kniese-schule-berlin.de/sek1.html"
   }
  },
  {
   "type": "Feature",
   "geometry": {
    "type": "Point",
    "coordinates": [
     13.615872,
     52.5081271
    ]
   },
   "properties": {
    "Schule": "ISS Mahlsdorf",
    "Schulnummer": "10K13",
    "Schulform": "Integrierte Sekundarschule",
    "Träger": "staatlich",
    "Ortsteil": "Mahlsdorf (Marzahn-Hellersdorf)",
    "Bezirk": "Marzahn-Hellersdorf",
    "Adresse": "An der Schule 47, 12623 Berlin",
    "Weitere Standorte": "",
    "Abschlüsse vor Ort": "alle bis Abitur",
    "Eigene Oberstufe": "ja",
    "Abitur vor Ort": "ja",
    "Ganztag": "",
    "Profil / Schwerpunkte": "JÜL-Klassen 7–9, Logbuch, Lerncoaching, Schulfarm",
    "Tag der offenen Tür": "2026/27 unklar",
    "Plätze 2026/27": "108",
    "Erstwünsche 2026/27": "182",
    "Nachfrage Hinweis": "",
    "Schülerzahl": "661",
    "Schüler Jg. 7": "",
    "Schülerzahl Stand": "2025/26 – Jg. 07 nur 14 SuS separat ausgewiesen; Jg. 7–9 offenbar überwiegend jahrgangsübergreifend unter „Jahrgangsstufe 09“ (387) gezählt – jg7 daher null; Schulverzeichnis › Schülerschaft › Jahrgangsstufen, Daten-Stand 06.10.2025",
    "Schülerzahl Quelle": "https://www.bildung.berlin.de/Schulverzeichnis/Schulportrait.aspx?IDSchulzweig=31256",
    "Kosten": "kostenfrei",
    "Notizen": "stark übernachgefragt (108 Plätze / 182 Erstwünsche 2026/27)",
    "Quelle": "https://www.iss-mahlsdorf.de"
   }
  },
  {
   "type": "Feature",
   "geometry": {
    "type": "Point",
    "coordinates": [
     13.6341897,
     52.5189546
    ]
   },
   "properties": {
    "Schule": "14. Schule (Gemeinschaftsschule Mahlsdorf)",
    "Schulnummer": "10K14",
    "Schulform": "Gemeinschaftsschule",
    "Träger": "staatlich",
    "Ortsteil": "Mahlsdorf (Marzahn-Hellersdorf)",
    "Bezirk": "Marzahn-Hellersdorf",
    "Adresse": "Landsberger Straße 178, 12623 Berlin",
    "Weitere Standorte": "",
    "Abschlüsse vor Ort": "im Aufbau",
    "Eigene Oberstufe": "im Aufbau (SV ja, Bezirk geplant)",
    "Abitur vor Ort": "im Aufbau",
    "Ganztag": "",
    "Profil / Schwerpunkte": "Lernhaus-Prinzip, Lerncoaching; kein jahrgangsübergreifendes Lernen",
    "Tag der offenen Tür": "2026/27 unklar",
    "Plätze 2026/27": "104",
    "Erstwünsche 2026/27": "107",
    "Nachfrage Hinweis": "",
    "Schülerzahl": "240",
    "Schüler Jg. 7": "93",
    "Schülerzahl Stand": "2025/26 – Gemeinschaftsschule im Aufbau: Jg. 1, 7, 8; Gesamtzahl inkl. Jg. 1; Schulverzeichnis › Schülerschaft › Jahrgangsstufen, Daten-Stand 06.10.2025",
    "Schülerzahl Quelle": "https://www.bildung.berlin.de/Schulverzeichnis/Schulportrait.aspx?IDSchulzweig=31322",
    "Kosten": "kostenfrei",
    "Notizen": "eröffnet 2025; 2026/27: 104 Plätze / 107 Erstwünsche",
    "Quelle": "https://www.bildung.berlin.de/Schulverzeichnis/Schulportrait.aspx?IDSchulzweig=31322"
   }
  },
  {
   "type": "Feature",
   "geometry": {
    "type": "Point",
    "coordinates": [
     13.5708853,
     52.52628
    ]
   },
   "properties": {
    "Schule": "ISS Biesdorf",
    "Schulnummer": "10K15",
    "Schulform": "Integrierte Sekundarschule",
    "Träger": "staatlich",
    "Ortsteil": "Biesdorf (Marzahn-Hellersdorf)",
    "Bezirk": "Marzahn-Hellersdorf",
    "Adresse": "Garzauer Straße 30, 12683 Berlin",
    "Weitere Standorte": "",
    "Abschlüsse vor Ort": "MSA",
    "Eigene Oberstufe": "geplant",
    "Abitur vor Ort": "im Aufbau",
    "Ganztag": "",
    "Profil / Schwerpunkte": "Lernbüros in den Kernfächern, Blockunterricht",
    "Tag der offenen Tür": "unklar",
    "Plätze 2026/27": "162",
    "Erstwünsche 2026/27": "82",
    "Nachfrage Hinweis": "",
    "Schülerzahl": "126",
    "Schüler Jg. 7": "126",
    "Schülerzahl Stand": "2025/26 – Schule im Aufbau (nur Jg. 07); Schulverzeichnis › Schülerschaft › Jahrgangsstufen, Daten-Stand 06.10.2025",
    "Schülerzahl Quelle": "https://www.bildung.berlin.de/Schulverzeichnis/Schulportrait.aspx?IDSchulzweig=31336",
    "Kosten": "kostenfrei",
    "Notizen": "amtlich: „15. Schule (Integrierte Sekundarschule)“; neu seit 2025; unternachgefragt (162 / 82); Standort-Umzug 2026 geplant – Adresse prüfen",
    "Quelle": "https://www.bildung.berlin.de/Schulverzeichnis/Schulportrait.aspx?IDSchulzweig=31336"
   }
  },
  {
   "type": "Feature",
   "geometry": {
    "type": "Point",
    "coordinates": [
     13.4440121,
     52.4484684
    ]
   },
   "properties": {
    "Schule": "Fritz-Karsen-Schule",
    "Schulnummer": "08K06",
    "Schulform": "Gemeinschaftsschule",
    "Träger": "staatlich",
    "Ortsteil": "Britz (Neukölln)",
    "Bezirk": "Neukölln",
    "Adresse": "Onkel-Bräsig-Straße 76, 12359 Berlin",
    "Weitere Standorte": "",
    "Abschlüsse vor Ort": "alle bis Abitur",
    "Eigene Oberstufe": "ja",
    "Abitur vor Ort": "ja",
    "Ganztag": "",
    "Profil / Schwerpunkte": "älteste Gesamtschule Berlins, inklusiv; Aufnahme ohne Noten (Gespräch + Engagement)",
    "Tag der offenen Tür": "unklar",
    "Plätze 2026/27": "125",
    "Erstwünsche 2026/27": "123",
    "Nachfrage Hinweis": "",
    "Schülerzahl": "1249",
    "Schüler Jg. 7": "127",
    "Schülerzahl Stand": "2025/26 – Gesamtzahl inkl. Grundstufe (JüL 1–3, 4–6); Schulverzeichnis › Schülerschaft › Jahrgangsstufen, Daten-Stand 06.10.2025",
    "Schülerzahl Quelle": "https://www.bildung.berlin.de/Schulverzeichnis/Schulportrait.aspx?IDSchulzweig=30052",
    "Kosten": "kostenfrei",
    "Notizen": "",
    "Quelle": "https://www.fritz-karsen.de/abc-der-mittelstufe-a/"
   }
  },
  {
   "type": "Feature",
   "geometry": {
    "type": "Point",
    "coordinates": [
     13.4586195,
     52.5019746
    ]
   },
   "properties": {
    "Schule": "Emanuel-Lasker-Schule",
    "Schulnummer": "02K06",
    "Schulform": "Gemeinschaftsschule",
    "Träger": "staatlich",
    "Ortsteil": "Friedrichshain",
    "Bezirk": "Friedrichshain-Kreuzberg",
    "Adresse": "Corinthstraße 5, 10245 Berlin",
    "Weitere Standorte": "",
    "Abschlüsse vor Ort": "alle bis Abitur",
    "Eigene Oberstufe": "ja",
    "Abitur vor Ort": "ja",
    "Ganztag": "",
    "Profil / Schwerpunkte": "Profilklassen ab 7; Insp. 2018: viel Frontalunterricht",
    "Tag der offenen Tür": "unklar",
    "Plätze 2026/27": "104",
    "Erstwünsche 2026/27": "119",
    "Nachfrage Hinweis": "",
    "Schülerzahl": "993",
    "Schüler Jg. 7": "112",
    "Schülerzahl Stand": "2025/26 – Gesamtzahl inkl. Jg. 1, 2, 3, 4, 5, 6 (Grundstufe); Schulverzeichnis › Schülerschaft › Jahrgangsstufen, Daten-Stand 06.10.2025",
    "Schülerzahl Quelle": "https://www.bildung.berlin.de/Schulverzeichnis/Schulportrait.aspx?IDSchulzweig=30410",
    "Kosten": "kostenfrei",
    "Notizen": "",
    "Quelle": "https://els-schule.de/mittelstufe/anmeldung-fuer-die-mittelstufe/"
   }
  },
  {
   "type": "Feature",
   "geometry": {
    "type": "Point",
    "coordinates": [
     13.5153064,
     52.4965876
    ]
   },
   "properties": {
    "Schule": "Schule am Tierpark",
    "Schulnummer": "11K08",
    "Schulform": "Integrierte Sekundarschule",
    "Träger": "staatlich",
    "Ortsteil": "Friedrichsfelde (Lichtenberg)",
    "Bezirk": "Lichtenberg",
    "Adresse": "Sewanstraße 223, 10319 Berlin",
    "Weitere Standorte": "Dolgenseestraße 60, Haus B, 10319 Berlin",
    "Abschlüsse vor Ort": "alle bis Abitur",
    "Eigene Oberstufe": "ja (gemeinsam mit Kniese-Schule)",
    "Abitur vor Ort": "ja",
    "Ganztag": "",
    "Profil / Schwerpunkte": "Logbücher, Bilanzgespräche, Werkstattwahl 7/8",
    "Tag der offenen Tür": "09.01.2027, 10–13 Uhr",
    "Plätze 2026/27": "130",
    "Erstwünsche 2026/27": "73",
    "Nachfrage Hinweis": "",
    "Schülerzahl": "724",
    "Schüler Jg. 7": "158",
    "Schülerzahl Stand": "2025/26 – Schulverzeichnis › Schülerschaft › Jahrgangsstufen, Daten-Stand 06.10.2025",
    "Schülerzahl Quelle": "https://www.bildung.berlin.de/Schulverzeichnis/Schulportrait.aspx?IDSchulzweig=30820",
    "Kosten": "kostenfrei",
    "Notizen": "unternachgefragt (130 / 73)",
    "Quelle": "https://www.schule-am-tierpark.de"
   }
  },
  {
   "type": "Feature",
   "geometry": {
    "type": "Point",
    "coordinates": [
     13.4491628,
     52.4890934
    ]
   },
   "properties": {
    "Schule": "Röntgen-Schule",
    "Schulnummer": "08K09",
    "Schulform": "Integrierte Sekundarschule",
    "Träger": "staatlich",
    "Ortsteil": "Alt-Treptow",
    "Bezirk": "Neukölln",
    "Adresse": "Wildenbruchstraße 53, 12435 Berlin",
    "Weitere Standorte": "",
    "Abschlüsse vor Ort": "alle bis Abitur",
    "Eigene Oberstufe": "ja (Verbund mit Sophie-Brahe)",
    "Abitur vor Ort": "ja",
    "Ganztag": "",
    "Profil / Schwerpunkte": "Informationstechnik",
    "Tag der offenen Tür": "unklar",
    "Plätze 2026/27": "100",
    "Erstwünsche 2026/27": "100",
    "Nachfrage Hinweis": "",
    "Schülerzahl": "427",
    "Schüler Jg. 7": "99",
    "Schülerzahl Stand": "2025/26 – Schulverzeichnis › Schülerschaft › Jahrgangsstufen, Daten-Stand 06.10.2025",
    "Schülerzahl Quelle": "https://www.bildung.berlin.de/Schulverzeichnis/Schulportrait.aspx?IDSchulzweig=31049",
    "Kosten": "kostenfrei",
    "Notizen": "",
    "Quelle": "https://www.bildung.berlin.de/Schulverzeichnis/Schulportrait.aspx?IDSchulzweig=31049"
   }
  },
  {
   "type": "Feature",
   "geometry": {
    "type": "Point",
    "coordinates": [
     13.522668,
     52.4920138
    ]
   },
   "properties": {
    "Schule": "Hans-und-Hilde-Coppi-Gymnasium",
    "Schulnummer": "11Y05",
    "Schulform": "Gymnasium",
    "Träger": "staatlich",
    "Ortsteil": "Karlshorst (Lichtenberg)",
    "Bezirk": "Lichtenberg",
    "Adresse": "Römerweg 30, 10318 Berlin",
    "Weitere Standorte": "",
    "Abschlüsse vor Ort": "Abitur",
    "Eigene Oberstufe": "ja",
    "Abitur vor Ort": "ja",
    "Ganztag": "",
    "Profil / Schwerpunkte": "Musikzug, bilinguale Angebote",
    "Tag der offenen Tür": "10.10.2026, 9–13 Uhr; Schnuppertag im Dezember",
    "Plätze 2026/27": "128",
    "Erstwünsche 2026/27": "176",
    "Nachfrage Hinweis": "",
    "Schülerzahl": "756",
    "Schüler Jg. 7": "128",
    "Schülerzahl Stand": "2025/26 – Schulverzeichnis › Schülerschaft › Jahrgangsstufen, Daten-Stand 06.10.2025",
    "Schülerzahl Quelle": "https://www.bildung.berlin.de/Schulverzeichnis/Schulportrait.aspx?IDSchulzweig=30640",
    "Kosten": "kostenfrei",
    "Notizen": "stark übernachgefragt (128 / 176)",
    "Quelle": "https://www.coppi-gym.de/wp"
   }
  },
  {
   "type": "Feature",
   "geometry": {
    "type": "Point",
    "coordinates": [
     13.4897353,
     52.5021984
    ]
   },
   "properties": {
    "Schule": "Immanuel-Kant-Gymnasium",
    "Schulnummer": "11Y11",
    "Schulform": "Gymnasium",
    "Träger": "staatlich",
    "Ortsteil": "Rummelsburg (Lichtenberg)",
    "Bezirk": "Lichtenberg",
    "Adresse": "Lückstraße 63, 10317 Berlin",
    "Weitere Standorte": "",
    "Abschlüsse vor Ort": "Abitur",
    "Eigene Oberstufe": "ja",
    "Abitur vor Ort": "ja",
    "Ganztag": "",
    "Profil / Schwerpunkte": "MINT",
    "Tag der offenen Tür": "10.10.2026, 9–13 Uhr",
    "Plätze 2026/27": "128",
    "Erstwünsche 2026/27": "158",
    "Nachfrage Hinweis": "",
    "Schülerzahl": "930",
    "Schüler Jg. 7": "192",
    "Schülerzahl Stand": "2025/26 – Gesamtzahl inkl. Jg. 5, 6; Schulverzeichnis › Schülerschaft › Jahrgangsstufen, Daten-Stand 06.10.2025",
    "Schülerzahl Quelle": "https://www.bildung.berlin.de/Schulverzeichnis/Schulportrait.aspx?IDSchulzweig=30636",
    "Kosten": "kostenfrei",
    "Notizen": "übernachgefragt (128 / 158)",
    "Quelle": "https://www.kant-gymnasium.de"
   }
  },
  {
   "type": "Feature",
   "geometry": {
    "type": "Point",
    "coordinates": [
     13.463461,
     52.4293403
    ]
   },
   "properties": {
    "Schule": "Walter-Gropius-Schule",
    "Schulnummer": "08K01",
    "Schulform": "Gemeinschaftsschule",
    "Träger": "staatlich",
    "Ortsteil": "Gropiusstadt (Neukölln)",
    "Bezirk": "Neukölln",
    "Adresse": "Fritz-Erler-Allee 86, 12351 Berlin",
    "Weitere Standorte": "",
    "Abschlüsse vor Ort": "alle bis Abitur",
    "Eigene Oberstufe": "ja",
    "Abitur vor Ort": "ja",
    "Ganztag": "",
    "Profil / Schwerpunkte": "gebundener Ganztag, bilingual",
    "Tag der offenen Tür": "20.02.2027",
    "Plätze 2026/27": "104",
    "Erstwünsche 2026/27": "69",
    "Nachfrage Hinweis": "Plätze inkl. interner Übergänger",
    "Schülerzahl": "1068",
    "Schüler Jg. 7": "101",
    "Schülerzahl Stand": "2025/26 – Gesamtzahl inkl. Jg. 1, 2, 3, 4, 5, 6 (Grundstufe); Schulverzeichnis › Schülerschaft › Jahrgangsstufen, Daten-Stand 06.10.2025",
    "Schülerzahl Quelle": "https://www.bildung.berlin.de/Schulverzeichnis/Schulportrait.aspx?IDSchulzweig=30053",
    "Kosten": "kostenfrei",
    "Notizen": "",
    "Quelle": "https://walter-gropius-schule-berlin.de/schulanmeldung-ms/"
   }
  },
  {
   "type": "Feature",
   "geometry": {
    "type": "Point",
    "coordinates": [
     13.5715328,
     52.4516532
    ]
   },
   "properties": {
    "Schule": "BEST-Sabel Gymnasium/ISS Köpenick",
    "Schulnummer": "09P09",
    "Schulform": "Gymnasium + ISS (Ersatzschule)",
    "Träger": "BEST-Sabel Bildungseinrichtungen gGmbH (staatlich anerkannt)",
    "Ortsteil": "Köpenick",
    "Bezirk": "Treptow-Köpenick",
    "Adresse": "Lindenstraße 1, 12555 Berlin",
    "Weitere Standorte": "Lindenstraße 42, 12555 Berlin (Oberstufe)",
    "Abschlüsse vor Ort": "MSA, Abitur",
    "Eigene Oberstufe": "ja (Lindenstraße 42)",
    "Abitur vor Ort": "ja",
    "Ganztag": "gebunden 8–16 Uhr",
    "Profil / Schwerpunkte": "Sprachen, Wirtschaft; max. 22 pro Klasse; kaum Montessori-Nähe",
    "Tag der offenen Tür": "Infoabende 13.10. + 15.12.2026; TdoT 07.11.2026",
    "Plätze 2026/27": "",
    "Erstwünsche 2026/27": "",
    "Nachfrage Hinweis": "",
    "Schülerzahl": "443",
    "Schüler Jg. 7": "76",
    "Schülerzahl Stand": "2025/26 – Schulverzeichnis › Schülerschaft › Jahrgangsstufen, Daten-Stand 06.10.2025",
    "Schülerzahl Quelle": "https://www.bildung.berlin.de/Schulverzeichnis/Schulportrait.aspx?IDSchulzweig=30075",
    "Kosten": "5.814 €/Jahr + 200 € Verwaltung; Ermäßigung nur < 45.000 € brutto; Geschwister 25–75 %",
    "Notizen": "Anmeldung verbindlich, KEIN Rücktrittsrecht",
    "Quelle": "https://best-sabel.de/schule/gymnasium-iss-koepenick/"
   }
  },
  {
   "type": "Feature",
   "geometry": {
    "type": "Point",
    "coordinates": [
     13.5340678,
     52.4525132
    ]
   },
   "properties": {
    "Schule": "Freie Waldorfschule Berlin-Südost",
    "Schulnummer": "09P01",
    "Schulform": "Waldorfschule (Ersatzschule, 1–13)",
    "Träger": "Waldorfpädagogik in Berlin-Südost e.V. (staatlich anerkannt)",
    "Ortsteil": "Niederschöneweide",
    "Bezirk": "Treptow-Köpenick",
    "Adresse": "Bruno-Bürgel-Weg 9, 12439 Berlin",
    "Weitere Standorte": "",
    "Abschlüsse vor Ort": "MSA, Abitur",
    "Eigene Oberstufe": "ja",
    "Abitur vor Ort": "ja",
    "Ganztag": "",
    "Profil / Schwerpunkte": "Klassenlehrer bis Kl. 9, kein Sitzenbleiben, Projektarbeit",
    "Tag der offenen Tür": "Infoabende 07.10. + 25.11.2026; TdoT 13.03.2027",
    "Plätze 2026/27": "",
    "Erstwünsche 2026/27": "",
    "Nachfrage Hinweis": "",
    "Schülerzahl": "",
    "Schüler Jg. 7": "",
    "Schülerzahl Stand": " – Schulverzeichnis: „Für Ihre aktuelle Anfrage sind keine Daten verfügbar.“",
    "Schülerzahl Quelle": "https://www.bildung.berlin.de/Schulverzeichnis/Schulportrait.aspx?IDSchulzweig=30127",
    "Kosten": "einkommensabhängig 60–550 €/Monat; Geschwister 50 %",
    "Notizen": "Quereinstieg nur bei freiem Platz",
    "Quelle": "https://waldorfsuedost.de/de/schule"
   }
  },
  {
   "type": "Feature",
   "geometry": {
    "type": "Point",
    "coordinates": [
     13.4983714,
     52.4639466
    ]
   },
   "properties": {
    "Schule": "Freie Interkulturelle Waldorfschule Berlin",
    "Schulnummer": "09P18",
    "Schulform": "Waldorfschule (Ersatzschule)",
    "Träger": "privat (Träger nicht geprüft)",
    "Ortsteil": "Niederschöneweide",
    "Bezirk": "Treptow-Köpenick",
    "Adresse": "Schnellerstraße 1, 12439 Berlin",
    "Weitere Standorte": "Naumburger Straße 4, 12057 Berlin (Filiale)",
    "Abschlüsse vor Ort": "",
    "Eigene Oberstufe": "ja (lt. Schulverzeichnis)",
    "Abitur vor Ort": "ja",
    "Ganztag": "",
    "Profil / Schwerpunkte": "Lernen ohne Notendruck, schriftliche Beurteilungen",
    "Tag der offenen Tür": "",
    "Plätze 2026/27": "",
    "Erstwünsche 2026/27": "",
    "Nachfrage Hinweis": "",
    "Schülerzahl": "282",
    "Schüler Jg. 7": "",
    "Schülerzahl Stand": "2025/26 – Gesamtzahl inkl. Klassen 1–6 und 11–12; keine Jg. 07 in der Statistik ausgewiesen; Schulverzeichnis › Schülerschaft › Jahrgangsstufen, Daten-Stand 06.10.2025",
    "Schülerzahl Quelle": "https://www.bildung.berlin.de/Schulverzeichnis/Schulportrait.aspx?IDSchulzweig=31207",
    "Kosten": "Selbsteinschätzung, Ø ca. 120 €/Monat",
    "Notizen": "RISIKO: Kl. 8–12 müssen bis Ende 2026 ausziehen, Neubau geplant",
    "Quelle": "https://berlin.interkulturellewaldorfschule.org/quereinstieg.html"
   }
  },
  {
   "type": "Feature",
   "geometry": {
    "type": "Point",
    "coordinates": [
     13.5925699,
     52.4236559
    ]
   },
   "properties": {
    "Schule": "Evangelische Schule Köpenick",
    "Schulnummer": "09P07",
    "Schulform": "Gymnasium (Ersatzschule, ab Kl. 5)",
    "Träger": "Evangelische Schulstiftung in der EKBO (staatlich anerkannt)",
    "Ortsteil": "Wendenschloss (Köpenick)",
    "Bezirk": "Treptow-Köpenick",
    "Adresse": "Grüne Trift 169, 12557 Berlin",
    "Weitere Standorte": "",
    "Abschlüsse vor Ort": "Abitur",
    "Eigene Oberstufe": "ja",
    "Abitur vor Ort": "ja",
    "Ganztag": "",
    "Profil / Schwerpunkte": "musisch-künstlerisch",
    "Tag der offenen Tür": "09.10.2026, 15–18 Uhr",
    "Plätze 2026/27": "",
    "Erstwünsche 2026/27": "",
    "Nachfrage Hinweis": "",
    "Schülerzahl": "614",
    "Schüler Jg. 7": "88",
    "Schülerzahl Stand": "2025/26 – Gesamtzahl inkl. Jg. 5, 6; Schulverzeichnis › Schülerschaft › Jahrgangsstufen, Daten-Stand 06.10.2025",
    "Schülerzahl Quelle": "https://www.bildung.berlin.de/Schulverzeichnis/Schulportrait.aspx?IDSchulzweig=30713",
    "Kosten": "2,4 % des Einkommens, 30–350 €/Monat",
    "Notizen": "Pflicht-Aufnahmetest 13./19.01.2027; verlangt Zeugnisse ab Kl. 3 (bei notenfreien Schulen vorher klären)",
    "Quelle": "https://www.ev-schule-koepenick.de/anmeldung/"
   }
  },
  {
   "type": "Feature",
   "geometry": {
    "type": "Point",
    "coordinates": [
     13.4102567,
     52.5120565
    ]
   },
   "properties": {
    "Schule": "Evangelische Schule Berlin Zentrum (ESBZ)",
    "Schulnummer": "01P23",
    "Schulform": "Gemeinschaftsschule (Ersatzschule)",
    "Träger": "Evangelische Schulstiftung in der EKBO (staatlich anerkannt)",
    "Ortsteil": "Mitte",
    "Bezirk": "Mitte",
    "Adresse": "Wallstraße 32, 10179 Berlin",
    "Weitere Standorte": "",
    "Abschlüsse vor Ort": "alle bis Abitur",
    "Eigene Oberstufe": "ja",
    "Abitur vor Ort": "ja",
    "Ganztag": "",
    "Profil / Schwerpunkte": "Lernbüro, keine Ziffernnoten, Jahrgangsmischung, Projekt „Herausforderung“",
    "Tag der offenen Tür": "07.12.2026",
    "Plätze 2026/27": "",
    "Erstwünsche 2026/27": "",
    "Nachfrage Hinweis": "",
    "Schülerzahl": "730",
    "Schüler Jg. 7": "",
    "Schülerzahl Stand": "2025/26 – Keine Jg. 07 ausgewiesen; Jg. 7–9 offenbar jahrgangsübergreifend unter „Jahrgangsstufe 09“ (224) gezählt; Schulverzeichnis › Schülerschaft › Jahrgangsstufen, Daten-Stand 06.10.2025",
    "Schülerzahl Quelle": "https://www.bildung.berlin.de/Schulverzeichnis/Schulportrait.aspx?IDSchulzweig=30311",
    "Kosten": "4,3 % vom Brutto (ca. 60–627 €/Monat) + Nebenkosten",
    "Notizen": "Antrag bis 18.12.2026; stark übernachgefragt",
    "Quelle": "https://www.ev-schule-zentrum.de/schulstufen/mittelstufe/tagesrhythmus-lernformate"
   }
  },
  {
   "type": "Feature",
   "geometry": {
    "type": "Point",
    "coordinates": [
     13.442912,
     52.4774669
    ]
   },
   "properties": {
    "Schule": "Katholische Schule St. Marien",
    "Schulnummer": "08P04",
    "Schulform": "Gymnasium + ISS (Ersatzschule)",
    "Träger": "Erzbistum Berlin",
    "Ortsteil": "Neukölln",
    "Bezirk": "Neukölln",
    "Adresse": "Donaustraße 58, 12043 Berlin",
    "Weitere Standorte": "",
    "Abschlüsse vor Ort": "alle bis Abitur",
    "Eigene Oberstufe": "ja",
    "Abitur vor Ort": "ja",
    "Ganztag": "",
    "Profil / Schwerpunkte": "ISS-Fach „Offenes Lernen“, MINT-Klasse",
    "Tag der offenen Tür": "10.10.2026, 10–14 Uhr",
    "Plätze 2026/27": "",
    "Erstwünsche 2026/27": "",
    "Nachfrage Hinweis": "",
    "Schülerzahl": "",
    "Schüler Jg. 7": "",
    "Schülerzahl Stand": " – Schulverzeichnis: „Für Ihre aktuelle Anfrage sind keine Daten verfügbar.“",
    "Schülerzahl Quelle": "https://www.bildung.berlin.de/Schulverzeichnis/Schulportrait.aspx?IDSchulzweig=30108",
    "Kosten": "3,4 % des zu versteuernden Einkommens, mind. 20 €/Monat",
    "Notizen": "",
    "Quelle": "https://marienschule-berlin.de/service/anmeldung"
   }
  },
  {
   "type": "Feature",
   "geometry": {
    "type": "Point",
    "coordinates": [
     13.4279345,
     52.4830213
    ]
   },
   "properties": {
    "Schule": "Evangelische Schule Neukölln",
    "Schulnummer": "08P03",
    "Schulform": "Integrierte Sekundarschule (Ersatzschule)",
    "Träger": "Evangelische Schulstiftung in der EKBO",
    "Ortsteil": "Neukölln",
    "Bezirk": "Neukölln",
    "Adresse": "Mainzer Straße 47, 12053 Berlin",
    "Weitere Standorte": "",
    "Abschlüsse vor Ort": "alle bis Abitur",
    "Eigene Oberstufe": "ja",
    "Abitur vor Ort": "ja",
    "Ganztag": "",
    "Profil / Schwerpunkte": "",
    "Tag der offenen Tür": "",
    "Plätze 2026/27": "",
    "Erstwünsche 2026/27": "",
    "Nachfrage Hinweis": "",
    "Schülerzahl": "",
    "Schüler Jg. 7": "",
    "Schülerzahl Stand": " – Schulverzeichnis: „Für Ihre aktuelle Anfrage sind keine Daten verfügbar.“; Presse (Berliner Zeitung) nennt „rund 890“ SuS für Kl. 1–13 – nicht übernommen (nicht offiziell/gerundet)",
    "Schülerzahl Quelle": "https://www.bildung.berlin.de/Schulverzeichnis/Schulportrait.aspx?IDSchulzweig=30106",
    "Kosten": "2,4 % vom Brutto, 30–350 €/Monat",
    "Notizen": "Anmeldeschluss 20.01.2027",
    "Quelle": "https://evangelische-schule-neukoelln.de/sek-i/"
   }
  },
  {
   "type": "Feature",
   "geometry": {
    "type": "Point",
    "coordinates": [
     13.4438611,
     52.5132289
    ]
   },
   "properties": {
    "Schule": "Netzwerk-Schule",
    "Schulnummer": "02P13",
    "Schulform": "Freie Alternativschule (nur genehmigt)",
    "Träger": "Netzwerk Spiel/Kultur Prenzlauer Berg e.V.",
    "Ortsteil": "Friedrichshain",
    "Bezirk": "Friedrichshain-Kreuzberg",
    "Adresse": "Marchlewskistraße 40, 10243 Berlin",
    "Weitere Standorte": "",
    "Abschlüsse vor Ort": "nur externe Prüfung",
    "Eigene Oberstufe": "nein",
    "Abitur vor Ort": "nein",
    "Ganztag": "",
    "Profil / Schwerpunkte": "demokratisch, keine Noten, altersgemischt",
    "Tag der offenen Tür": "",
    "Plätze 2026/27": "",
    "Erstwünsche 2026/27": "",
    "Nachfrage Hinweis": "",
    "Schülerzahl": "106",
    "Schüler Jg. 7": "",
    "Schülerzahl Stand": "2025/26 – Gesamtzahl inkl. Grundstufe (JüL 4–6); keine Jg. 07 ausgewiesen (Sek I offenbar jahrgangsübergreifend unter Jg. 10 gezählt); Schulverzeichnis › Schülerschaft › Jahrgangsstufen, Daten-Stand 06.10.2025",
    "Schülerzahl Quelle": "https://www.bildung.berlin.de/Schulverzeichnis/Schulportrait.aspx?IDSchulzweig=30975",
    "Kosten": "110–200 €/Monat",
    "Notizen": "nur genehmigt, nicht anerkannt",
    "Quelle": "https://schule.netzwerkspielkultur.de/die-schule/konzept"
   }
  },
  {
   "type": "Feature",
   "geometry": {
    "type": "Point",
    "coordinates": [
     13.436661,
     52.465236
    ]
   },
   "properties": {
    "Schule": "MeineSchuleBerlin",
    "Schulnummer": "08P09",
    "Schulform": "Freie Alternativschule",
    "Träger": "Meine Schule Berlin e.V.",
    "Ortsteil": "Neukölln",
    "Bezirk": "Neukölln",
    "Adresse": "Delbrückstraße 18, 12051 Berlin",
    "Weitere Standorte": "",
    "Abschlüsse vor Ort": "",
    "Eigene Oberstufe": "unklar",
    "Abitur vor Ort": "unklar",
    "Ganztag": "",
    "Profil / Schwerpunkte": "altersgemischt, selbstbestimmt, Bezug auf Montessori/Freinet; sehr klein",
    "Tag der offenen Tür": "",
    "Plätze 2026/27": "",
    "Erstwünsche 2026/27": "",
    "Nachfrage Hinweis": "",
    "Schülerzahl": "42",
    "Schüler Jg. 7": "10",
    "Schülerzahl Stand": "2025/26 – Gesamtzahl inkl. Jg. 2, 4, 5 (Grundstufe); Schule im Aufbau (nur Jg. 02, 04, 05, 07, 09); Schulverzeichnis › Schülerschaft › Jahrgangsstufen, Daten-Stand 06.10.2025",
    "Schülerzahl Quelle": "https://www.bildung.berlin.de/Schulverzeichnis/Schulportrait.aspx?IDSchulzweig=30744",
    "Kosten": "100–650 €/Monat einkommensabhängig",
    "Notizen": "keine offenen Sek-I-Plätze ausgeschrieben",
    "Quelle": "https://www.meineschuleberlin.org/die-schule/"
   }
  },
  {
   "type": "Feature",
   "geometry": {
    "type": "Point",
    "coordinates": [
     13.6083501,
     52.5013408
    ]
   },
   "properties": {
    "Schule": "Freie Schule Berlin-Mahlsdorf",
    "Schulnummer": "10P12",
    "Schulform": "Freie Schule, anthroposophisch (1–11)",
    "Träger": "Forum Pädagogik am Elsengrund gGmbH",
    "Ortsteil": "Mahlsdorf",
    "Bezirk": "Marzahn-Hellersdorf",
    "Adresse": "Elsenstraße 13a, 12623 Berlin",
    "Weitere Standorte": "",
    "Abschlüsse vor Ort": "BBR, MSA (Kl. 11)",
    "Eigene Oberstufe": "nein",
    "Abitur vor Ort": "nein",
    "Ganztag": "",
    "Profil / Schwerpunkte": "Noten erst ab Kl. 9",
    "Tag der offenen Tür": "",
    "Plätze 2026/27": "",
    "Erstwünsche 2026/27": "",
    "Nachfrage Hinweis": "",
    "Schülerzahl": "175",
    "Schüler Jg. 7": "19",
    "Schülerzahl Stand": "2025/26 – Gesamtzahl inkl. Jg. 1, 2, 3, 4, 5, 6 (Grundstufe); Schulverzeichnis › Schülerschaft › Jahrgangsstufen, Daten-Stand 06.10.2025",
    "Schülerzahl Quelle": "https://www.bildung.berlin.de/Schulverzeichnis/Schulportrait.aspx?IDSchulzweig=29940",
    "Kosten": "4 % vom Brutto, 100–500 €/Monat",
    "Notizen": "",
    "Quelle": "https://www.freie-schule-mahlsdorf.de/schule"
   }
  },
  {
   "type": "Feature",
   "geometry": {
    "type": "Point",
    "coordinates": [
     13.5675735,
     52.5142621
    ]
   },
   "properties": {
    "Schule": "Internationale Lomonossow-Schule Marzahn",
    "Schulnummer": "10P10",
    "Schulform": "Gemeinschaftsschule (Ersatzschule), deutsch-russisch",
    "Träger": "MITRA Lomonossow-Schulen gGmbH",
    "Ortsteil": "Biesdorf",
    "Bezirk": "Marzahn-Hellersdorf",
    "Adresse": "Brebacher Weg 15, 12683 Berlin",
    "Weitere Standorte": "",
    "Abschlüsse vor Ort": "BBR bis Abitur",
    "Eigene Oberstufe": "ja (nur genehmigt)",
    "Abitur vor Ort": "ja",
    "Ganztag": "",
    "Profil / Schwerpunkte": "",
    "Tag der offenen Tür": "",
    "Plätze 2026/27": "",
    "Erstwünsche 2026/27": "",
    "Nachfrage Hinweis": "",
    "Schülerzahl": "530",
    "Schüler Jg. 7": "45",
    "Schülerzahl Stand": "2025/26 – Gesamtzahl inkl. Jg. 1, 2, 3, 4, 5, 6 (Grundstufe); Schulverzeichnis › Schülerschaft › Jahrgangsstufen, Daten-Stand 06.10.2025",
    "Schülerzahl Quelle": "https://www.bildung.berlin.de/Schulverzeichnis/Schulportrait.aspx?IDSchulzweig=30715",
    "Kosten": "unklar",
    "Notizen": "",
    "Quelle": "https://lomonossow-schule.de/elterninformation/"
   }
  },
  {
   "type": "Feature",
   "geometry": {
    "type": "Point",
    "coordinates": [
     13.844636,
     52.530688
    ]
   },
   "properties": {
    "Schule": "Montessori Oberschule Strausberg",
    "Schulnummer": "",
    "Schulform": "Montessori-Oberschule (genehmigte Ersatzschule, Kl. 7–10)",
    "Träger": "Montessori Stiftung Berlin (Brandenburg, nur genehmigt)",
    "Ortsteil": "Strausberg (Brandenburg)",
    "Bezirk": "Brandenburg",
    "Adresse": "Hennickendorfer Chaussee 2, 15344 Strausberg",
    "Weitere Standorte": "",
    "Abschlüsse vor Ort": "BBR, FOR (derzeit als Nichtschülerprüfung), Montessori-Abschluss",
    "Eigene Oberstufe": "nein",
    "Abitur vor Ort": "nein",
    "Ganztag": "",
    "Profil / Schwerpunkte": "Erdkinderplan: „Work & Study“, Schülergenossenschaft (Hof, Gästehaus), Große Praktische Arbeit in Kl. 10; 2-ha-Gelände; gehört zum Montessori Campus Berlin Köpenick (ehem. „Jugendschule Strausberg“)",
    "Tag der offenen Tür": "keine Infoabende veröffentlicht; Weihnachtsmarkt 11.12.2026 ab 15 Uhr",
    "Plätze 2026/27": "",
    "Erstwünsche 2026/27": "",
    "Nachfrage Hinweis": "",
    "Schülerzahl": "48",
    "Schüler Jg. 7": "12",
    "Schülerzahl Stand": "2025/26 – Schulporträt Brandenburg (amtlich), genehmigte Ersatzschule; Jg. 7–10",
    "Schülerzahl Quelle": "https://schulen.brandenburg.de/schule/180427",
    "Kosten": "Schulgeld unklar (nicht online)",
    "Notizen": "Bewerbung bis 20.12.2026 (Website nennt dabei „Schuljahr 2026/2027“ – klären); in Brandenburg: Aufnahme Berliner Kinder und Abschlussprüfung extern klären; eröffnet 2025/26",
    "Quelle": "https://montessori-strausberg.de/kennenlernen"
   }
  },
  {
   "type": "Feature",
   "geometry": {
    "type": "Point",
    "coordinates": [
     13.669831,
     52.341006
    ]
   },
   "properties": {
    "Schule": "Gesamtschule mit gymnasialer Oberstufe Königs Wusterhausen",
    "Schulnummer": "",
    "Schulform": "Gesamtschule mit gymnasialer Oberstufe (Ersatzschule, Brandenburg)",
    "Träger": "FAWZ gGmbH (Fürstenwalder Aus- und Weiterbildungszentrum), Teil von AcadeMedia",
    "Ortsteil": "Niederlehme, Königs Wusterhausen (Brandenburg)",
    "Bezirk": "Brandenburg",
    "Adresse": "Schulstraße 3, 15713 Königs Wusterhausen",
    "Weitere Standorte": "",
    "Abschlüsse vor Ort": "erweiterte Berufsbildungsreife bis Abitur",
    "Eigene Oberstufe": "ja (Kl. 7–13)",
    "Abitur vor Ort": "ja",
    "Ganztag": "ja (Ganztagsschule)",
    "Profil / Schwerpunkte": "naturwissenschaftliches Profil; max. 24 pro Klasse; Laptop-Klassen; „individuelle Lernzeit“ im Ganztag; aber Leistungskurse (Grund-/Erweiterungskurs) ab Kl. 7 – eher klassisch, keine Belege für Lernbüro/Notenfreiheit",
    "Tag der offenen Tür": "10.10. (Jahr nicht angegeben, vermutlich 2026), 10 Uhr",
    "Plätze 2026/27": "",
    "Erstwünsche 2026/27": "",
    "Nachfrage Hinweis": "",
    "Schülerzahl": "328",
    "Schüler Jg. 7": "72",
    "Schülerzahl Stand": "2026/27 – Schulporträt Brandenburg (amtlich); Jg. 7–13 inkl. Oberstufe",
    "Schülerzahl Quelle": "https://schulen.brandenburg.de/schule/113499",
    "Kosten": "Schulgeld unklar (Tabelle nur auf Anfrage beim Sekretariat), Ermäßigung möglich",
    "Notizen": "Anmeldung = unverbindliche Interessenbekundung, keine Bildungsgangempfehlung nötig; Status (anerkannt?) und Aufnahme Berliner Kinder nicht angegeben – erfragen: sekretariat.gsk@v.fawz.de",
    "Quelle": "https://www.gesamtschule-kw.de/unser-profil/"
   }
  },
  {
   "type": "Feature",
   "geometry": {
    "type": "Point",
    "coordinates": [
     13.5567594,
     52.490623
    ]
   },
   "properties": {
    "Schule": "Georg-Klingenberg-Schule",
    "Schulnummer": "10K06",
    "Schulform": "Integrierte Sekundarschule",
    "Träger": "staatlich",
    "Ortsteil": "Biesdorf",
    "Bezirk": "Marzahn-Hellersdorf",
    "Adresse": "Alberichstraße 24, 12683 Berlin",
    "Weitere Standorte": "",
    "Abschlüsse vor Ort": "",
    "Eigene Oberstufe": "nein (lt. Schulverzeichnis)",
    "Abitur vor Ort": "nein",
    "Ganztag": "",
    "Profil / Schwerpunkte": "",
    "Tag der offenen Tür": "",
    "Plätze 2026/27": "130",
    "Erstwünsche 2026/27": "38",
    "Nachfrage Hinweis": "",
    "Schülerzahl": "583",
    "Schüler Jg. 7": "132",
    "Schülerzahl Stand": "2025/26 – Schulverzeichnis › Schülerschaft › Jahrgangsstufen, Daten-Stand 06.10.2025",
    "Schülerzahl Quelle": "https://www.bildung.berlin.de/Schulverzeichnis/Schulportrait.aspx?IDSchulzweig=30884",
    "Kosten": "kostenfrei",
    "Notizen": "",
    "Quelle": "https://www.bildung.berlin.de/Schulverzeichnis/Schulportrait.aspx?IDSchulzweig=30884"
   }
  },
  {
   "type": "Feature",
   "geometry": {
    "type": "Point",
    "coordinates": [
     13.602342,
     52.4465947
    ]
   },
   "properties": {
    "Schule": "Flatow-Oberschule",
    "Schulnummer": "09A07",
    "Schulform": "Integrierte Sekundarschule (Sportschule)",
    "Träger": "staatlich",
    "Ortsteil": "Köpenick",
    "Bezirk": "Treptow-Köpenick",
    "Adresse": "Birkenstraße 11, 12559 Berlin",
    "Weitere Standorte": "",
    "Abschlüsse vor Ort": "",
    "Eigene Oberstufe": "ja (lt. Schulverzeichnis)",
    "Abitur vor Ort": "ja",
    "Ganztag": "",
    "Profil / Schwerpunkte": "",
    "Tag der offenen Tür": "",
    "Plätze 2026/27": "",
    "Erstwünsche 2026/27": "",
    "Nachfrage Hinweis": "",
    "Schülerzahl": "285",
    "Schüler Jg. 7": "64",
    "Schülerzahl Stand": "2025/26 – Schulverzeichnis › Schülerschaft › Jahrgangsstufen, Daten-Stand 06.10.2025",
    "Schülerzahl Quelle": "https://www.bildung.berlin.de/Schulverzeichnis/Schulportrait.aspx?IDSchulzweig=30572",
    "Kosten": "kostenfrei",
    "Notizen": "Schul- und Leistungssportzentrum: Aufnahme nur mit Nachweis sportlicher Eignung",
    "Quelle": "https://www.bildung.berlin.de/Schulverzeichnis/Schulportrait.aspx?IDSchulzweig=30572"
   }
  },
  {
   "type": "Feature",
   "geometry": {
    "type": "Point",
    "coordinates": [
     13.5491004,
     52.5121139
    ]
   },
   "properties": {
    "Schule": "Otto-Nagel-Gymnasium",
    "Schulnummer": "10Y02",
    "Schulform": "Gymnasium",
    "Träger": "staatlich",
    "Ortsteil": "Biesdorf",
    "Bezirk": "Marzahn-Hellersdorf",
    "Adresse": "Schulstraße 11, 12683 Berlin",
    "Weitere Standorte": "",
    "Abschlüsse vor Ort": "",
    "Eigene Oberstufe": "ja (lt. Schulverzeichnis)",
    "Abitur vor Ort": "ja",
    "Ganztag": "",
    "Profil / Schwerpunkte": "",
    "Tag der offenen Tür": "",
    "Plätze 2026/27": "160",
    "Erstwünsche 2026/27": "103",
    "Nachfrage Hinweis": "",
    "Schülerzahl": "955",
    "Schüler Jg. 7": "127",
    "Schülerzahl Stand": "2025/26 – Gesamtzahl inkl. Jg. 5, 6; Schulverzeichnis › Schülerschaft › Jahrgangsstufen, Daten-Stand 06.10.2025",
    "Schülerzahl Quelle": "https://www.bildung.berlin.de/Schulverzeichnis/Schulportrait.aspx?IDSchulzweig=30800",
    "Kosten": "kostenfrei",
    "Notizen": "laut Recherche nur eine Regelklasse 7 (sonst Profil-/grundständige Klassen) – prüfen",
    "Quelle": "https://www.bildung.berlin.de/Schulverzeichnis/Schulportrait.aspx?IDSchulzweig=30800"
   }
  },
  {
   "type": "Feature",
   "geometry": {
    "type": "Point",
    "coordinates": [
     13.516034,
     52.4228597
    ]
   },
   "properties": {
    "Schule": "Clay-Schule",
    "Schulnummer": "08K05",
    "Schulform": "Integrierte Sekundarschule",
    "Träger": "staatlich",
    "Ortsteil": "Rudow",
    "Bezirk": "Neukölln",
    "Adresse": "Neudecker Weg 22, 12355 Berlin",
    "Weitere Standorte": "",
    "Abschlüsse vor Ort": "",
    "Eigene Oberstufe": "ja (lt. Schulverzeichnis)",
    "Abitur vor Ort": "ja",
    "Ganztag": "",
    "Profil / Schwerpunkte": "",
    "Tag der offenen Tür": "",
    "Plätze 2026/27": "208",
    "Erstwünsche 2026/27": "380",
    "Nachfrage Hinweis": "",
    "Schülerzahl": "1079",
    "Schüler Jg. 7": "225",
    "Schülerzahl Stand": "2025/26 – Schulverzeichnis › Schülerschaft › Jahrgangsstufen, Daten-Stand 06.10.2025",
    "Schülerzahl Quelle": "https://www.bildung.berlin.de/Schulverzeichnis/Schulportrait.aspx?IDSchulzweig=30056",
    "Kosten": "kostenfrei",
    "Notizen": "",
    "Quelle": "https://www.bildung.berlin.de/Schulverzeichnis/Schulportrait.aspx?IDSchulzweig=30056"
   }
  },
  {
   "type": "Feature",
   "geometry": {
    "type": "Point",
    "coordinates": [
     13.5157208,
     52.5081442
    ]
   },
   "properties": {
    "Schule": "Alexander-Puschkin-Schule",
    "Schulnummer": "11K01",
    "Schulform": "Integrierte Sekundarschule",
    "Träger": "staatlich",
    "Ortsteil": "Friedrichsfelde",
    "Bezirk": "Lichtenberg",
    "Adresse": "Massower Straße 37, 10315 Berlin",
    "Weitere Standorte": "",
    "Abschlüsse vor Ort": "",
    "Eigene Oberstufe": "nein (lt. Schulverzeichnis)",
    "Abitur vor Ort": "nein",
    "Ganztag": "",
    "Profil / Schwerpunkte": "",
    "Tag der offenen Tür": "",
    "Plätze 2026/27": "104",
    "Erstwünsche 2026/27": "150",
    "Nachfrage Hinweis": "",
    "Schülerzahl": "450",
    "Schüler Jg. 7": "105",
    "Schülerzahl Stand": "2025/26 – Schulverzeichnis › Schülerschaft › Jahrgangsstufen, Daten-Stand 06.10.2025",
    "Schülerzahl Quelle": "https://www.bildung.berlin.de/Schulverzeichnis/Schulportrait.aspx?IDSchulzweig=30811",
    "Kosten": "kostenfrei",
    "Notizen": "",
    "Quelle": "https://www.bildung.berlin.de/Schulverzeichnis/Schulportrait.aspx?IDSchulzweig=30811"
   }
  },
  {
   "type": "Feature",
   "geometry": {
    "type": "Point",
    "coordinates": [
     13.5922216,
     52.5261799
    ]
   },
   "properties": {
    "Schule": "12. Schule (Gymnasium) Marzahn-Hellersdorf",
    "Schulnummer": "10Y12",
    "Schulform": "Gymnasium",
    "Träger": "staatlich",
    "Ortsteil": "Hellersdorf",
    "Bezirk": "Marzahn-Hellersdorf",
    "Adresse": "Erich-Kästner-Straße 52, 12619 Berlin",
    "Weitere Standorte": "",
    "Abschlüsse vor Ort": "",
    "Eigene Oberstufe": "im Aufbau (lt. Schulverzeichnis angehakt)",
    "Abitur vor Ort": "im Aufbau",
    "Ganztag": "",
    "Profil / Schwerpunkte": "",
    "Tag der offenen Tür": "",
    "Plätze 2026/27": "94",
    "Erstwünsche 2026/27": "102",
    "Nachfrage Hinweis": "",
    "Schülerzahl": "276",
    "Schüler Jg. 7": "160",
    "Schülerzahl Stand": "2025/26 – Schule im Aufbau (nur Jg. 07, 08); Schulverzeichnis › Schülerschaft › Jahrgangsstufen, Daten-Stand 06.10.2025",
    "Schülerzahl Quelle": "https://www.bildung.berlin.de/Schulverzeichnis/Schulportrait.aspx?IDSchulzweig=31323",
    "Kosten": "kostenfrei",
    "Notizen": "neu gegründet, noch ohne Namen; Oberstufe im Schulverzeichnis angehakt, besteht aber vermutlich erst in einigen Jahren",
    "Quelle": "https://www.bildung.berlin.de/Schulverzeichnis/Schulportrait.aspx?IDSchulzweig=31323"
   }
  },
  {
   "type": "Feature",
   "geometry": {
    "type": "Point",
    "coordinates": [
     13.5080931,
     52.4047326
    ]
   },
   "properties": {
    "Schule": "Hannah-Arendt-Gymnasium",
    "Schulnummer": "08Y06",
    "Schulform": "Gymnasium",
    "Träger": "staatlich",
    "Ortsteil": "Rudow",
    "Bezirk": "Neukölln",
    "Adresse": "Elfriede-Kuhr-Straße 17, 12355 Berlin",
    "Weitere Standorte": "",
    "Abschlüsse vor Ort": "",
    "Eigene Oberstufe": "ja (lt. Schulverzeichnis)",
    "Abitur vor Ort": "ja",
    "Ganztag": "",
    "Profil / Schwerpunkte": "",
    "Tag der offenen Tür": "",
    "Plätze 2026/27": "128",
    "Erstwünsche 2026/27": "173",
    "Nachfrage Hinweis": "",
    "Schülerzahl": "798",
    "Schüler Jg. 7": "127",
    "Schülerzahl Stand": "2025/26 – Schulverzeichnis › Schülerschaft › Jahrgangsstufen, Daten-Stand 06.10.2025",
    "Schülerzahl Quelle": "https://www.bildung.berlin.de/Schulverzeichnis/Schulportrait.aspx?IDSchulzweig=30236",
    "Kosten": "kostenfrei",
    "Notizen": "",
    "Quelle": "https://www.bildung.berlin.de/Schulverzeichnis/Schulportrait.aspx?IDSchulzweig=30236"
   }
  },
  {
   "type": "Feature",
   "geometry": {
    "type": "Point",
    "coordinates": [
     13.5519924,
     52.5330211
    ]
   },
   "properties": {
    "Schule": "Wilhelm-von-Siemens-Gymnasium",
    "Schulnummer": "10Y03",
    "Schulform": "Gymnasium",
    "Träger": "staatlich",
    "Ortsteil": "Biesdorf",
    "Bezirk": "Marzahn-Hellersdorf",
    "Adresse": "Allee der Kosmonauten 134, 12683 Berlin",
    "Weitere Standorte": "",
    "Abschlüsse vor Ort": "",
    "Eigene Oberstufe": "ja (lt. Schulverzeichnis)",
    "Abitur vor Ort": "ja",
    "Ganztag": "",
    "Profil / Schwerpunkte": "",
    "Tag der offenen Tür": "",
    "Plätze 2026/27": "32",
    "Erstwünsche 2026/27": "48",
    "Nachfrage Hinweis": "",
    "Schülerzahl": "878",
    "Schüler Jg. 7": "160",
    "Schülerzahl Stand": "2025/26 – Schulverzeichnis › Schülerschaft › Jahrgangsstufen, Daten-Stand 06.10.2025",
    "Schülerzahl Quelle": "https://www.bildung.berlin.de/Schulverzeichnis/Schulportrait.aspx?IDSchulzweig=30991",
    "Kosten": "kostenfrei",
    "Notizen": "",
    "Quelle": "https://www.bildung.berlin.de/Schulverzeichnis/Schulportrait.aspx?IDSchulzweig=30991"
   }
  },
  {
   "type": "Feature",
   "geometry": {
    "type": "Point",
    "coordinates": [
     13.589515,
     52.5343434
    ]
   },
   "properties": {
    "Schule": "Caspar-David-Friedrich-Schule",
    "Schulnummer": "10K07",
    "Schulform": "Integrierte Sekundarschule",
    "Träger": "staatlich",
    "Ortsteil": "Hellersdorf",
    "Bezirk": "Marzahn-Hellersdorf",
    "Adresse": "Alte Hellersdorfer Straße 7, 12629 Berlin",
    "Weitere Standorte": "",
    "Abschlüsse vor Ort": "",
    "Eigene Oberstufe": "nein (lt. Schulverzeichnis)",
    "Abitur vor Ort": "nein",
    "Ganztag": "",
    "Profil / Schwerpunkte": "",
    "Tag der offenen Tür": "",
    "Plätze 2026/27": "156",
    "Erstwünsche 2026/27": "166",
    "Nachfrage Hinweis": "",
    "Schülerzahl": "539",
    "Schüler Jg. 7": "130",
    "Schülerzahl Stand": "2025/26 – Schulverzeichnis › Schülerschaft › Jahrgangsstufen, Daten-Stand 06.10.2025",
    "Schülerzahl Quelle": "https://www.bildung.berlin.de/Schulverzeichnis/Schulportrait.aspx?IDSchulzweig=30742",
    "Kosten": "kostenfrei",
    "Notizen": "",
    "Quelle": "https://www.bildung.berlin.de/Schulverzeichnis/Schulportrait.aspx?IDSchulzweig=30742"
   }
  },
  {
   "type": "Feature",
   "geometry": {
    "type": "Point",
    "coordinates": [
     13.5126525,
     52.5241756
    ]
   },
   "properties": {
    "Schule": "12. Schule (Gymnasium) Lichtenberg",
    "Schulnummer": "11Y12",
    "Schulform": "Gymnasium",
    "Träger": "staatlich",
    "Ortsteil": "Friedrichsfelde",
    "Bezirk": "Lichtenberg",
    "Adresse": "Allee der Kosmonauten 20, 10315 Berlin",
    "Weitere Standorte": "",
    "Abschlüsse vor Ort": "",
    "Eigene Oberstufe": "im Aufbau (lt. Schulverzeichnis angehakt)",
    "Abitur vor Ort": "im Aufbau",
    "Ganztag": "",
    "Profil / Schwerpunkte": "",
    "Tag der offenen Tür": "",
    "Plätze 2026/27": "160",
    "Erstwünsche 2026/27": "90",
    "Nachfrage Hinweis": "",
    "Schülerzahl": "289",
    "Schüler Jg. 7": "158",
    "Schülerzahl Stand": "2025/26 – Schule im Aufbau (nur Jg. 07, 08); Schulverzeichnis › Schülerschaft › Jahrgangsstufen, Daten-Stand 06.10.2025",
    "Schülerzahl Quelle": "https://www.bildung.berlin.de/Schulverzeichnis/Schulportrait.aspx?IDSchulzweig=31319",
    "Kosten": "kostenfrei",
    "Notizen": "neu gegründet, noch ohne Namen; Oberstufe im Schulverzeichnis angehakt, besteht aber vermutlich erst in einigen Jahren",
    "Quelle": "https://www.bildung.berlin.de/Schulverzeichnis/Schulportrait.aspx?IDSchulzweig=31319"
   }
  },
  {
   "type": "Feature",
   "geometry": {
    "type": "Point",
    "coordinates": [
     13.5139044,
     52.5248369
    ]
   },
   "properties": {
    "Schule": "Kosmos-Schule (ISS)",
    "Schulnummer": "11K15",
    "Schulform": "Integrierte Sekundarschule",
    "Träger": "staatlich",
    "Ortsteil": "Friedrichsfelde",
    "Bezirk": "Lichtenberg",
    "Adresse": "Allee der Kosmonauten 22, 10315 Berlin",
    "Weitere Standorte": "",
    "Abschlüsse vor Ort": "",
    "Eigene Oberstufe": "nein (lt. Schulverzeichnis)",
    "Abitur vor Ort": "nein",
    "Ganztag": "",
    "Profil / Schwerpunkte": "",
    "Tag der offenen Tür": "",
    "Plätze 2026/27": "156",
    "Erstwünsche 2026/27": "228",
    "Nachfrage Hinweis": "",
    "Schülerzahl": "432",
    "Schüler Jg. 7": "156",
    "Schülerzahl Stand": "2025/26 – Schulverzeichnis › Schülerschaft › Jahrgangsstufen, Daten-Stand 06.10.2025",
    "Schülerzahl Quelle": "https://www.bildung.berlin.de/Schulverzeichnis/Schulportrait.aspx?IDSchulzweig=31318",
    "Kosten": "kostenfrei",
    "Notizen": "in der Senatsstatistik als „15. Schule“ geführt",
    "Quelle": "https://www.bildung.berlin.de/Schulverzeichnis/Schulportrait.aspx?IDSchulzweig=31318"
   }
  },
  {
   "type": "Feature",
   "geometry": {
    "type": "Point",
    "coordinates": [
     13.4738306,
     52.4271718
    ]
   },
   "properties": {
    "Schule": "Gemeinschaftsschule Campus Efeuweg",
    "Schulnummer": "08K13",
    "Schulform": "Gemeinschaftsschule",
    "Träger": "staatlich",
    "Ortsteil": "Gropiusstadt",
    "Bezirk": "Neukölln",
    "Adresse": "Efeuweg 34, 12357 Berlin",
    "Weitere Standorte": "",
    "Abschlüsse vor Ort": "",
    "Eigene Oberstufe": "nein (lt. Schulverzeichnis)",
    "Abitur vor Ort": "nein",
    "Ganztag": "",
    "Profil / Schwerpunkte": "",
    "Tag der offenen Tür": "",
    "Plätze 2026/27": "104",
    "Erstwünsche 2026/27": "55",
    "Nachfrage Hinweis": "",
    "Schülerzahl": "838",
    "Schüler Jg. 7": "107",
    "Schülerzahl Stand": "2025/26 – Gesamtzahl inkl. Jg. 1, 2, 3, 4, 5, 6 (Grundstufe); Schulverzeichnis › Schülerschaft › Jahrgangsstufen, Daten-Stand 06.10.2025",
    "Schülerzahl Quelle": "https://www.bildung.berlin.de/Schulverzeichnis/Schulportrait.aspx?IDSchulzweig=31187",
    "Kosten": "kostenfrei",
    "Notizen": "",
    "Quelle": "https://www.bildung.berlin.de/Schulverzeichnis/Schulportrait.aspx?IDSchulzweig=31187"
   }
  },
  {
   "type": "Feature",
   "geometry": {
    "type": "Point",
    "coordinates": [
     13.5968591,
     52.5371643
    ]
   },
   "properties": {
    "Schule": "Wolfgang-Amadeus-Mozart-Schule",
    "Schulnummer": "10K10",
    "Schulform": "Gemeinschaftsschule",
    "Träger": "staatlich",
    "Ortsteil": "Hellersdorf",
    "Bezirk": "Marzahn-Hellersdorf",
    "Adresse": "Cottbusser Straße 23, 12627 Berlin",
    "Weitere Standorte": "",
    "Abschlüsse vor Ort": "",
    "Eigene Oberstufe": "nein (lt. Schulverzeichnis)",
    "Abitur vor Ort": "nein",
    "Ganztag": "",
    "Profil / Schwerpunkte": "",
    "Tag der offenen Tür": "",
    "Plätze 2026/27": "104",
    "Erstwünsche 2026/27": "47",
    "Nachfrage Hinweis": "",
    "Schülerzahl": "1201",
    "Schüler Jg. 7": "104",
    "Schülerzahl Stand": "2025/26 – Gesamtzahl inkl. Jg. 1, 2, 3, 4, 5, 6 (Grundstufe); Schulverzeichnis › Schülerschaft › Jahrgangsstufen, Daten-Stand 06.10.2025",
    "Schülerzahl Quelle": "https://www.bildung.berlin.de/Schulverzeichnis/Schulportrait.aspx?IDSchulzweig=30926",
    "Kosten": "kostenfrei",
    "Notizen": "",
    "Quelle": "https://www.bildung.berlin.de/Schulverzeichnis/Schulportrait.aspx?IDSchulzweig=30926"
   }
  },
  {
   "type": "Feature",
   "geometry": {
    "type": "Point",
    "coordinates": [
     13.4887033,
     52.4189934
    ]
   },
   "properties": {
    "Schule": "Kepler-Schule",
    "Schulnummer": "08K12",
    "Schulform": "Integrierte Sekundarschule",
    "Träger": "staatlich",
    "Ortsteil": "Rudow",
    "Bezirk": "Neukölln",
    "Adresse": "Bildhauerweg 9, 12355 Berlin",
    "Weitere Standorte": "",
    "Abschlüsse vor Ort": "",
    "Eigene Oberstufe": "nein (lt. Schulverzeichnis)",
    "Abitur vor Ort": "nein",
    "Ganztag": "",
    "Profil / Schwerpunkte": "",
    "Tag der offenen Tür": "",
    "Plätze 2026/27": "182",
    "Erstwünsche 2026/27": "21",
    "Nachfrage Hinweis": "",
    "Schülerzahl": "394",
    "Schüler Jg. 7": "84",
    "Schülerzahl Stand": "2025/26 – Schulverzeichnis › Schülerschaft › Jahrgangsstufen, Daten-Stand 06.10.2025",
    "Schülerzahl Quelle": "https://www.bildung.berlin.de/Schulverzeichnis/Schulportrait.aspx?IDSchulzweig=31044",
    "Kosten": "kostenfrei",
    "Notizen": "",
    "Quelle": "https://www.bildung.berlin.de/Schulverzeichnis/Schulportrait.aspx?IDSchulzweig=31044"
   }
  },
  {
   "type": "Feature",
   "geometry": {
    "type": "Point",
    "coordinates": [
     13.4727425,
     52.4224124
    ]
   },
   "properties": {
    "Schule": "Hermann-von-Helmholtz-Schule",
    "Schulnummer": "08K02",
    "Schulform": "Integrierte Sekundarschule",
    "Träger": "staatlich",
    "Ortsteil": "Gropiusstadt",
    "Bezirk": "Neukölln",
    "Adresse": "Wutzkyallee 68, 12353 Berlin",
    "Weitere Standorte": "",
    "Abschlüsse vor Ort": "",
    "Eigene Oberstufe": "nein (lt. Schulverzeichnis)",
    "Abitur vor Ort": "nein",
    "Ganztag": "",
    "Profil / Schwerpunkte": "",
    "Tag der offenen Tür": "",
    "Plätze 2026/27": "104",
    "Erstwünsche 2026/27": "55",
    "Nachfrage Hinweis": "",
    "Schülerzahl": "889",
    "Schüler Jg. 7": "131",
    "Schülerzahl Stand": "2025/26 – Gesamtzahl inkl. Jg. 1, 2, 3, 4, 5, 6 (Grundstufe); Schulverzeichnis › Schülerschaft › Jahrgangsstufen, Daten-Stand 06.10.2025",
    "Schülerzahl Quelle": "https://www.bildung.berlin.de/Schulverzeichnis/Schulportrait.aspx?IDSchulzweig=30054",
    "Kosten": "kostenfrei",
    "Notizen": "",
    "Quelle": "https://www.bildung.berlin.de/Schulverzeichnis/Schulportrait.aspx?IDSchulzweig=30054"
   }
  },
  {
   "type": "Feature",
   "geometry": {
    "type": "Point",
    "coordinates": [
     13.5864567,
     52.5429999
    ]
   },
   "properties": {
    "Schule": "Ernst-Haeckel-Schule",
    "Schulnummer": "10K02",
    "Schulform": "Integrierte Sekundarschule",
    "Träger": "staatlich",
    "Ortsteil": "Hellersdorf",
    "Bezirk": "Marzahn-Hellersdorf",
    "Adresse": "Luckenwalder Straße 53, 12629 Berlin",
    "Weitere Standorte": "",
    "Abschlüsse vor Ort": "",
    "Eigene Oberstufe": "ja (lt. Schulverzeichnis)",
    "Abitur vor Ort": "ja",
    "Ganztag": "",
    "Profil / Schwerpunkte": "",
    "Tag der offenen Tür": "",
    "Plätze 2026/27": "189",
    "Erstwünsche 2026/27": "321",
    "Nachfrage Hinweis": "",
    "Schülerzahl": "992",
    "Schüler Jg. 7": "210",
    "Schülerzahl Stand": "2025/26 – Schulverzeichnis › Schülerschaft › Jahrgangsstufen, Daten-Stand 06.10.2025",
    "Schülerzahl Quelle": "https://www.bildung.berlin.de/Schulverzeichnis/Schulportrait.aspx?IDSchulzweig=30847",
    "Kosten": "kostenfrei",
    "Notizen": "",
    "Quelle": "https://www.bildung.berlin.de/Schulverzeichnis/Schulportrait.aspx?IDSchulzweig=30847"
   }
  },
  {
   "type": "Feature",
   "geometry": {
    "type": "Point",
    "coordinates": [
     13.6213581,
     52.5287619
    ]
   },
   "properties": {
    "Schule": "Konrad-Wachsmann-Schule",
    "Schulnummer": "10K09",
    "Schulform": "Integrierte Sekundarschule",
    "Träger": "staatlich",
    "Ortsteil": "Hellersdorf",
    "Bezirk": "Marzahn-Hellersdorf",
    "Adresse": "Geithainer Straße 12, 12627 Berlin",
    "Weitere Standorte": "",
    "Abschlüsse vor Ort": "",
    "Eigene Oberstufe": "nein (lt. Schulverzeichnis)",
    "Abitur vor Ort": "nein",
    "Ganztag": "",
    "Profil / Schwerpunkte": "",
    "Tag der offenen Tür": "",
    "Plätze 2026/27": "135",
    "Erstwünsche 2026/27": "91",
    "Nachfrage Hinweis": "",
    "Schülerzahl": "551",
    "Schüler Jg. 7": "132",
    "Schülerzahl Stand": "2025/26 – Schulverzeichnis › Schülerschaft › Jahrgangsstufen, Daten-Stand 06.10.2025",
    "Schülerzahl Quelle": "https://www.bildung.berlin.de/Schulverzeichnis/Schulportrait.aspx?IDSchulzweig=30739",
    "Kosten": "kostenfrei",
    "Notizen": "",
    "Quelle": "https://www.bildung.berlin.de/Schulverzeichnis/Schulportrait.aspx?IDSchulzweig=30739"
   }
  },
  {
   "type": "Feature",
   "geometry": {
    "type": "Point",
    "coordinates": [
     13.590718,
     52.5430555
    ]
   },
   "properties": {
    "Schule": "Sartre-Gymnasium",
    "Schulnummer": "10Y08",
    "Schulform": "Gymnasium",
    "Träger": "staatlich",
    "Ortsteil": "Hellersdorf",
    "Bezirk": "Marzahn-Hellersdorf",
    "Adresse": "Kyritzer Straße 103, 12629 Berlin",
    "Weitere Standorte": "",
    "Abschlüsse vor Ort": "",
    "Eigene Oberstufe": "ja (lt. Schulverzeichnis)",
    "Abitur vor Ort": "ja",
    "Ganztag": "",
    "Profil / Schwerpunkte": "",
    "Tag der offenen Tür": "",
    "Plätze 2026/27": "160",
    "Erstwünsche 2026/27": "197",
    "Nachfrage Hinweis": "",
    "Schülerzahl": "873",
    "Schüler Jg. 7": "149",
    "Schülerzahl Stand": "2025/26 – Schulverzeichnis › Schülerschaft › Jahrgangsstufen, Daten-Stand 06.10.2025",
    "Schülerzahl Quelle": "https://www.bildung.berlin.de/Schulverzeichnis/Schulportrait.aspx?IDSchulzweig=30846",
    "Kosten": "kostenfrei",
    "Notizen": "",
    "Quelle": "https://www.bildung.berlin.de/Schulverzeichnis/Schulportrait.aspx?IDSchulzweig=30846"
   }
  },
  {
   "type": "Feature",
   "geometry": {
    "type": "Point",
    "coordinates": [
     13.4807497,
     52.5108832
    ]
   },
   "properties": {
    "Schule": "Mildred-Harnack-Schule",
    "Schulnummer": "11K02",
    "Schulform": "Integrierte Sekundarschule",
    "Träger": "staatlich",
    "Ortsteil": "Rummelsburg",
    "Bezirk": "Lichtenberg",
    "Adresse": "Schulze-Boysen-Straße 12, 10365 Berlin",
    "Weitere Standorte": "",
    "Abschlüsse vor Ort": "",
    "Eigene Oberstufe": "ja (lt. Schulverzeichnis)",
    "Abitur vor Ort": "ja",
    "Ganztag": "",
    "Profil / Schwerpunkte": "",
    "Tag der offenen Tür": "",
    "Plätze 2026/27": "156",
    "Erstwünsche 2026/27": "199",
    "Nachfrage Hinweis": "",
    "Schülerzahl": "855",
    "Schüler Jg. 7": "124",
    "Schülerzahl Stand": "2025/26 – Schulverzeichnis › Schülerschaft › Jahrgangsstufen, Daten-Stand 06.10.2025",
    "Schülerzahl Quelle": "https://www.bildung.berlin.de/Schulverzeichnis/Schulportrait.aspx?IDSchulzweig=30812",
    "Kosten": "kostenfrei",
    "Notizen": "Europaschule – laut Recherche wird Spanisch vorausgesetzt",
    "Quelle": "https://www.bildung.berlin.de/Schulverzeichnis/Schulportrait.aspx?IDSchulzweig=30812"
   }
  },
  {
   "type": "Feature",
   "geometry": {
    "type": "Point",
    "coordinates": [
     13.6185443,
     52.5343713
    ]
   },
   "properties": {
    "Schule": "Melanchthon-Gymnasium",
    "Schulnummer": "10Y11",
    "Schulform": "Gymnasium",
    "Träger": "staatlich",
    "Ortsteil": "Hellersdorf",
    "Bezirk": "Marzahn-Hellersdorf",
    "Adresse": "Adele-Sandrock-Straße 73, 12627 Berlin",
    "Weitere Standorte": "",
    "Abschlüsse vor Ort": "",
    "Eigene Oberstufe": "ja (lt. Schulverzeichnis)",
    "Abitur vor Ort": "ja",
    "Ganztag": "",
    "Profil / Schwerpunkte": "",
    "Tag der offenen Tür": "",
    "Plätze 2026/27": "192",
    "Erstwünsche 2026/27": "123",
    "Nachfrage Hinweis": "",
    "Schülerzahl": "1091",
    "Schüler Jg. 7": "152",
    "Schülerzahl Stand": "2025/26 – Gesamtzahl inkl. Jg. 5, 6; Schulverzeichnis › Schülerschaft › Jahrgangsstufen, Daten-Stand 06.10.2025",
    "Schülerzahl Quelle": "https://www.bildung.berlin.de/Schulverzeichnis/Schulportrait.aspx?IDSchulzweig=30562",
    "Kosten": "kostenfrei",
    "Notizen": "",
    "Quelle": "https://www.bildung.berlin.de/Schulverzeichnis/Schulportrait.aspx?IDSchulzweig=30562"
   }
  },
  {
   "type": "Feature",
   "geometry": {
    "type": "Point",
    "coordinates": [
     13.5949892,
     52.5456119
    ]
   },
   "properties": {
    "Schule": "Jean-Piaget-Schule",
    "Schulnummer": "10K05",
    "Schulform": "Integrierte Sekundarschule",
    "Träger": "staatlich",
    "Ortsteil": "Hellersdorf",
    "Bezirk": "Marzahn-Hellersdorf",
    "Adresse": "Mittenwalder Straße 5, 12629 Berlin",
    "Weitere Standorte": "",
    "Abschlüsse vor Ort": "",
    "Eigene Oberstufe": "nein (lt. Schulverzeichnis)",
    "Abitur vor Ort": "nein",
    "Ganztag": "",
    "Profil / Schwerpunkte": "",
    "Tag der offenen Tür": "",
    "Plätze 2026/27": "130",
    "Erstwünsche 2026/27": "104",
    "Nachfrage Hinweis": "",
    "Schülerzahl": "534",
    "Schüler Jg. 7": "139",
    "Schülerzahl Stand": "2025/26 – Schulverzeichnis › Schülerschaft › Jahrgangsstufen, Daten-Stand 06.10.2025",
    "Schülerzahl Quelle": "https://www.bildung.berlin.de/Schulverzeichnis/Schulportrait.aspx?IDSchulzweig=30874",
    "Kosten": "kostenfrei",
    "Notizen": "",
    "Quelle": "https://www.bildung.berlin.de/Schulverzeichnis/Schulportrait.aspx?IDSchulzweig=30874"
   }
  },
  {
   "type": "Feature",
   "geometry": {
    "type": "Point",
    "coordinates": [
     13.556138,
     52.5533276
    ]
   },
   "properties": {
    "Schule": "Tagore-Gymnasium",
    "Schulnummer": "10Y01",
    "Schulform": "Gymnasium",
    "Träger": "staatlich",
    "Ortsteil": "Marzahn",
    "Bezirk": "Marzahn-Hellersdorf",
    "Adresse": "Sella-Hasse-Straße 25, 12687 Berlin",
    "Weitere Standorte": "",
    "Abschlüsse vor Ort": "",
    "Eigene Oberstufe": "ja (lt. Schulverzeichnis)",
    "Abitur vor Ort": "ja",
    "Ganztag": "",
    "Profil / Schwerpunkte": "",
    "Tag der offenen Tür": "",
    "Plätze 2026/27": "160",
    "Erstwünsche 2026/27": "116",
    "Nachfrage Hinweis": "",
    "Schülerzahl": "850",
    "Schüler Jg. 7": "155",
    "Schülerzahl Stand": "2025/26 – Schulverzeichnis › Schülerschaft › Jahrgangsstufen, Daten-Stand 06.10.2025",
    "Schülerzahl Quelle": "https://www.bildung.berlin.de/Schulverzeichnis/Schulportrait.aspx?IDSchulzweig=30799",
    "Kosten": "kostenfrei",
    "Notizen": "Neubau geplant – Standort 2027/28 prüfen",
    "Quelle": "https://www.bildung.berlin.de/Schulverzeichnis/Schulportrait.aspx?IDSchulzweig=30799"
   }
  },
  {
   "type": "Feature",
   "geometry": {
    "type": "Point",
    "coordinates": [
     13.4810045,
     52.5155831
    ]
   },
   "properties": {
    "Schule": "Schule am Rathaus",
    "Schulnummer": "11K06",
    "Schulform": "Integrierte Sekundarschule",
    "Träger": "staatlich",
    "Ortsteil": "Lichtenberg",
    "Bezirk": "Lichtenberg",
    "Adresse": "Rathausstraße 8, 10367 Berlin",
    "Weitere Standorte": "",
    "Abschlüsse vor Ort": "",
    "Eigene Oberstufe": "nein (lt. Schulverzeichnis)",
    "Abitur vor Ort": "nein",
    "Ganztag": "",
    "Profil / Schwerpunkte": "",
    "Tag der offenen Tür": "",
    "Plätze 2026/27": "96",
    "Erstwünsche 2026/27": "102",
    "Nachfrage Hinweis": "",
    "Schülerzahl": "392",
    "Schüler Jg. 7": "108",
    "Schülerzahl Stand": "2025/26 – Schulverzeichnis › Schülerschaft › Jahrgangsstufen, Daten-Stand 06.10.2025",
    "Schülerzahl Quelle": "https://www.bildung.berlin.de/Schulverzeichnis/Schulportrait.aspx?IDSchulzweig=30818",
    "Kosten": "kostenfrei",
    "Notizen": "Grenznote 2026/27: 2,7 (Bezirk Lichtenberg)",
    "Quelle": "https://www.bildung.berlin.de/Schulverzeichnis/Schulportrait.aspx?IDSchulzweig=30818"
   }
  },
  {
   "type": "Feature",
   "geometry": {
    "type": "Point",
    "coordinates": [
     13.4500171,
     52.458361
    ]
   },
   "properties": {
    "Schule": "Otto-Hahn-Schule",
    "Schulnummer": "08K03",
    "Schulform": "Integrierte Sekundarschule",
    "Träger": "staatlich",
    "Ortsteil": "Britz",
    "Bezirk": "Neukölln",
    "Adresse": "Buschkrugallee 63, 12359 Berlin",
    "Weitere Standorte": "",
    "Abschlüsse vor Ort": "",
    "Eigene Oberstufe": "ja (lt. Schulverzeichnis)",
    "Abitur vor Ort": "ja",
    "Ganztag": "",
    "Profil / Schwerpunkte": "",
    "Tag der offenen Tür": "",
    "Plätze 2026/27": "130",
    "Erstwünsche 2026/27": "160",
    "Nachfrage Hinweis": "",
    "Schülerzahl": "805",
    "Schüler Jg. 7": "128",
    "Schülerzahl Stand": "2025/26 – Schulverzeichnis › Schülerschaft › Jahrgangsstufen, Daten-Stand 06.10.2025",
    "Schülerzahl Quelle": "https://www.bildung.berlin.de/Schulverzeichnis/Schulportrait.aspx?IDSchulzweig=30055",
    "Kosten": "kostenfrei",
    "Notizen": "",
    "Quelle": "https://www.bildung.berlin.de/Schulverzeichnis/Schulportrait.aspx?IDSchulzweig=30055"
   }
  }
 ]
}